{"type":"FeatureCollection","features":[{"type":"Feature","id":"SUP.1","geometry":{"type":"MultiPolygon","coordinates":[[[[16.525,57.78888889],[16.54138889,57.77638889],[16.52638889,57.77222222],[16.51444444,57.78333333],[16.525,57.78888889]]]]},"geometry_name":"the_geom","properties":{"NAME":"HJORTEN","ID":"ESR833_1","DESIG":"ESR833","LOWER":"GND","UPPER":"2100","FROM":"2025-11-10T06:00Z","TO":"2027-08-31T21:00Z","SCHEDULE":"10 NOV 2025 – 31 AUG 2027 MON – FRI 0600 – 2100 (0500 – 2000)","COM_SE":"Tillfälliga restriktionsområdena ESR833 Hjorten, ESR834 Almvik och ESR839 Ultö upprättade för flygverksamhet med UAS enligt särskilda tillstånd.","COM_EN":"Temporary restricted areas ESR833 Hjorten, ESR834 Almvik and ESR839 Ultö established for aviation operations with UAS with special permission.","URL":"https://aro.lfv.se/content/eaip/AIP%20AMDT%201-2026_2026_08_07/eSUP/AIP%20SUP%20284-2025_2025_11_27/ES-SUP-en-GB.html#SUP","COORD":"","LOW_UOM":"","UP_UOM":"ft AMSL"}},{"type":"Feature","id":"SUP.2","geometry":{"type":"MultiPolygon","coordinates":[[[[16.38194444,57.94555556],[16.70194444,57.79138889],[16.59083333,57.70472222],[16.26527778,57.86166667],[16.38194444,57.94555556]]]]},"geometry_name":"the_geom","properties":{"NAME":"ALMVIK","ID":"ESR834_1","DESIG":"ESR834","LOWER":"GND","UPPER":"2100","FROM":"2025-11-10T06:00Z","TO":"2027-08-31T21:00Z","SCHEDULE":"10 NOV 2025 – 31 AUG 2027 MON – FRI 0600 – 2100 (0500 – 2000)","COM_SE":"Tillfälliga restriktionsområdena ESR833 Hjorten, ESR834 Almvik och ESR839 Ultö upprättade för flygverksamhet med UAS enligt särskilda tillstånd.","COM_EN":"Temporary restricted areas ESR833 Hjorten, ESR834 Almvik and ESR839 Ultö established for aviation operations with UAS with special permission.","URL":"https://aro.lfv.se/content/eaip/AIP%20AMDT%201-2026_2026_08_07/eSUP/AIP%20SUP%20284-2025_2025_11_27/ES-SUP-en-GB.html#SUP","COORD":"","LOW_UOM":"","UP_UOM":"ft AMSL"}},{"type":"Feature","id":"SUP.3","geometry":{"type":"MultiPolygon","coordinates":[[[[16.70194444,57.79138889],[16.96277778,57.66444444],[16.73222222,57.49083333],[16.47166667,57.6175],[16.70194444,57.79138889]]]]},"geometry_name":"the_geom","properties":{"NAME":"ULTÖ","ID":"ESR839_1","DESIG":"ESR839","LOWER":"GND","UPPER":"2100","FROM":"2025-11-10T06:00Z","TO":"2027-08-31T21:00Z","SCHEDULE":"10 NOV 2025 – 31 AUG 2027 MON – FRI 0600 – 2100 (0500 – 2000)","COM_SE":"Tillfälliga restriktionsområdena ESR833 Hjorten, ESR834 Almvik och ESR839 Ultö upprättade för flygverksamhet med UAS enligt särskilda tillstånd.","COM_EN":"Temporary restricted areas ESR833 Hjorten, ESR834 Almvik and ESR839 Ultö established for aviation operations with UAS with special permission.","URL":"https://aro.lfv.se/content/eaip/AIP%20AMDT%201-2026_2026_08_07/eSUP/AIP%20SUP%20284-2025_2025_11_27/ES-SUP-en-GB.html#SUP","COORD":"","LOW_UOM":"","UP_UOM":"ft AMSL"}},{"type":"Feature","id":"SUP.4","geometry":{"type":"MultiPolygon","coordinates":[[[[11.975,57.67916667],[12.09722222,57.67083333],[12.08111111,57.56833333],[11.88194444,57.56027778],[11.84861111,57.62805556],[11.915,57.62638889],[11.975,57.67916667]]]]},"geometry_name":"the_geom","properties":{"NAME":"MÖLNDAL UAS","ID":"ESD865_2","DESIG":"ESD865","LOWER":"GND","UPPER":"800","FROM":"2026-01-01T07:00Z","TO":"2026-12-31T21:30Z","SCHEDULE":"01 JAN 2026 - 31 DEC 2026, DAILY 0700 - 2130 (0600 - 2030)","COM_SE":"Tillfälligt farligt område ESD865 Mölndal UAS är upprättat för UAS som flyger utom synhåll (BVLOS).\nInformation om verksamhetens status i området kan inhämtas från Everdrone AB TEL 076 686 04 14, alternativt TEL 031 799 29 14.","COM_EN":"Temporary danger area ESD865 Mölndal UAS is established for UAS flying beyond visual line of sight (BVLOS).\nInfo regarding status of the operations in the area can be obtained from Everdrone AB TEL +46 76 686 04 14, alternatively TEL +46 31 799 29 14.","URL":"https://aro.lfv.se/content/eaip/AIP%20AMDT%201-2026_2026_08_07/eSUP/AIP%20SUP%20301-2025_2026_01_01/ES-SUP-en-GB.html#SUP","COORD":"","LOW_UOM":"","UP_UOM":"ft AMSL"}},{"type":"Feature","id":"SUP.5","geometry":{"type":"MultiPolygon","coordinates":[[[[23.56833333,67.15805556],[23.60583333,67.13388889],[23.65472222,67.10277778],[23.67472222,67.06416667],[23.7575,67.00611111],[23.81527778,66.97916667],[23.85194444,66.9575],[23.86694444,66.91722222],[23.87361111,66.91416667],[19.66222222,65.08611111],[12.26666667,62.1575],[12.29944444,62.2675],[12.26222222,62.31972222],[12.17166667,62.44833333],[19.27972222,65.27694444],[23.56833333,67.15805556]]]]},"geometry_name":"the_geom","properties":{"NAME":"ICARUS","ID":"ESD311_3","DESIG":"ESD311","LOWER":"FL520","UPPER":"FL660","FROM":"2026-01-01T00:00Z","TO":"2026-12-31T23:59Z","SCHEDULE":"01 JAN 2026 0000 - 31 DEC 2026 2400","COM_SE":"Det tillfälliga farliga området ESD311 Icarus upprättas för militär flygverksamhet.\nInformation om status på området kan ges av Stockholm ACC.","COM_EN":"The temporary danger area ESD311 Icarus is established for military aviation activities.\nInformation regarding status of the area can be obtained from Stockholm ACC.","URL":"https://aro.lfv.se/content/eaip/AIP%20AMDT%201-2026_2026_08_07/eSUP/AIP%20SUP%20300-2025_2026_01_01/ES-SUP-en-GB.html#SUP","COORD":"","LOW_UOM":"","UP_UOM":""}},{"type":"Feature","id":"SUP.6","geometry":{"type":"MultiPolygon","coordinates":[[[[20.26527778,59.41027778],[20.5975,59.22666667],[12.21277778,56.41722222],[12.03472222,56.64638889],[20.26527778,59.41027778]]]]},"geometry_name":"the_geom","properties":{"NAME":"ARGUS","ID":"ESD309_2","DESIG":"ESD309","LOWER":"FL520","UPPER":"FL660","FROM":"2026-01-01T00:00Z","TO":"2026-12-31T23:59Z","SCHEDULE":"01 JAN 2026 0000 - 31 DEC 2026 2400","COM_SE":"Det tillfälliga farliga området ESD309 Argus upprättas för militär flygverksamhet.\nInformation om status på området kan ges av Malmö ACC.","COM_EN":"The temporary danger area ESD309 Argus is established for military aviation activities.\nInformation regarding status of the area can be obtained from Malmö ACC.","URL":"https://aro.lfv.se/content/eaip/AIP%20AMDT%201-2026_2026_08_07/eSUP/AIP%20SUP%20299-2025_2026_01_01/ES-SUP-en-GB.html#SUP","COORD":"","LOW_UOM":"","UP_UOM":""}},{"type":"Feature","id":"SUP.7","geometry":{"type":"MultiPolygon","coordinates":[[[[15.815,60.67416667],[15.81583333,60.57861111],[15.66916667,60.58],[15.66333333,60.6075],[15.66333333,60.61611111],[15.63444444,60.62722222],[15.635,60.67388889],[15.815,60.67416667]]]]},"geometry_name":"the_geom","properties":{"NAME":"LUGNET","ID":"ESR505_2","DESIG":"ESR505","LOWER":"GND","UPPER":"2500","FROM":"2026-01-01T06:00Z","TO":"2026-12-31T19:00Z","SCHEDULE":"01 JAN 2026 – 31 DEC 2026\nMON-THU 0600 - 1900 (0500 - 1800)\nFRI 0600 - 1300 (0500 - 1200)","COM_SE":"Tillfälligt restriktionsområde ESR505 LUGNET upprättat för militär flygverksamhet.","COM_EN":"Temporary restricted area ESR505 LUGNET established for military aviation operations","URL":"https://aro.lfv.se/content/eaip/AIP%20AMDT%201-2026_2026_08_07/eSUP/AIP%20SUP%20305-2025_2026_01_01/ES-SUP-en-GB.html#SUP","COORD":"","LOW_UOM":"","UP_UOM":"ft AMSL"}},{"type":"Feature","id":"SUP.8","geometry":{"type":"MultiPolygon","coordinates":[[[[11.99333333,58.40305556],[12.04027778,58.32833333],[11.98666667,58.29083333],[11.85027778,58.28666667],[11.79388889,58.34888889],[11.81555556,58.36055556],[11.85333333,58.37472222],[11.99333333,58.40305556]]]]},"geometry_name":"the_geom","properties":{"NAME":"UDDEVALLA UAS","ID":"ESD824_2","DESIG":"ESD824","LOWER":"GND","UPPER":"800","FROM":"2026-02-09T07:00Z","TO":"2026-12-31T21:30Z","SCHEDULE":"09 FEB  - 31 DEC,  daily 0700-2130 (0600-2030)","COM_SE":"Tillfälliga farliga områdena ESD823 Borås UAS, ESD824 Uddevalla UAS samt ESD825 Skövde UAS är upprättat för UAS som flyger utom synhåll (BVLOS) med särskilda villkor.","COM_EN":"Temporary danger areas ESD823 Borås UAS, ESD824 Uddevalla UAS and ESD825 Skövde UAS are established for UAS flying beyond visual line of sight (BVLOS) with special permission.","URL":"https://aro.lfv.se/content/eaip/AIP%20AMDT%201-2026_2026_08_07/eSUP/AIP%20SUP%2019-2026_2026_02_09/ES-SUP-en-GB.html#SUP","COORD":"","LOW_UOM":"","UP_UOM":"ft AMSL"}},{"type":"Feature","id":"SUP.9","geometry":{"type":"MultiPolygon","coordinates":[[[[13.86611111,58.44888889],[13.92833333,58.43916667],[13.905,58.39722222],[13.965,58.38777778],[13.81638889,58.30833333],[13.77472222,58.39333333],[13.82222222,58.41861111],[13.85361111,58.41527778],[13.86611111,58.42138889],[13.86611111,58.44888889]]]]},"geometry_name":"the_geom","properties":{"NAME":"SKÖVDE UAS","ID":"ESD825_2","DESIG":"ESD825","LOWER":"GND","UPPER":"1100","FROM":"2026-02-09T07:00Z","TO":"2026-12-31T21:30Z","SCHEDULE":"09 FEB  - 31 DEC,  daily 0700-2130 (0600-2030)","COM_SE":"Tillfälliga farliga områdena ESD823 Borås UAS, ESD824 Uddevalla UAS samt ESD825 Skövde UAS är upprättat för UAS som flyger utom synhåll (BVLOS) med särskilda villkor.","COM_EN":"Temporary danger areas ESD823 Borås UAS, ESD824 Uddevalla UAS and ESD825 Skövde UAS are established for UAS flying beyond visual line of sight (BVLOS) with special permission.","URL":"https://aro.lfv.se/content/eaip/AIP%20AMDT%201-2026_2026_08_07/eSUP/AIP%20SUP%2019-2026_2026_02_09/ES-SUP-en-GB.html#SUP","COORD":"","LOW_UOM":"","UP_UOM":"ft AMSL"}},{"type":"Feature","id":"SUP.10","geometry":{"type":"MultiPolygon","coordinates":[[[[12.97805556,57.77666667],[13.06555556,57.74416667],[13.03888889,57.66111111],[12.88916667,57.6725],[12.89361111,57.68444444],[12.9725,57.72027778],[12.97333333,57.7225],[12.97333333,57.725],[12.97222222,57.72694444],[12.96833333,57.72861111],[12.96472222,57.72916667],[12.96,57.72861111],[12.95694444,57.72722222],[12.955,57.72472222],[12.95555556,57.72305556],[12.94,57.71666667],[12.9275,57.71916667],[12.90444444,57.71583333],[12.92277778,57.76777778],[12.97805556,57.77666667]]]]},"geometry_name":"the_geom","properties":{"NAME":"BORÅS UAS","ID":"ESD823_1","DESIG":"ESD823","LOWER":"GND","UPPER":"1300","FROM":"2026-02-09T07:00Z","TO":"2026-12-31T21:30Z","SCHEDULE":"09 FEB  - 31 DEC,  daily 0700-2130 (0600-2030)","COM_SE":"Tillfälliga farliga områdena ESD823 Borås UAS, ESD824 Uddevalla UAS samt ESD825 Skövde UAS är upprättat för UAS som flyger utom synhåll (BVLOS) med särskilda villkor.","COM_EN":"Temporary danger areas ESD823 Borås UAS, ESD824 Uddevalla UAS and ESD825 Skövde UAS are established for UAS flying beyond visual line of sight (BVLOS) with special permission.","URL":"https://aro.lfv.se/content/eaip/AIP%20AMDT%201-2026_2026_08_07/eSUP/AIP%20SUP%2019-2026_2026_02_09/ES-SUP-en-GB.html#SUP","COORD":"","LOW_UOM":"","UP_UOM":"ft AMSL"}},{"type":"Feature","id":"SUP.11","geometry":{"type":"MultiPolygon","coordinates":[[[[22.13269782,65.5325],[22.13268215,65.53236792],[22.13263531,65.53223712],[22.13255773,65.53210885],[22.13245017,65.53198434],[22.13231366,65.53186481],[22.13214953,65.53175138],[22.13195934,65.53164517],[22.13174493,65.53154719],[22.13150836,65.53145839],[22.13125192,65.53137962],[22.13097807,65.53131163],[22.13068946,65.5312551],[22.13038885,65.53121055],[22.13007915,65.53117842],[22.12976333,65.53115902],[22.12944444,65.53115253],[22.12912556,65.53115902],[22.12880974,65.53117842],[22.12850004,65.53121055],[22.12819943,65.5312551],[22.12791081,65.53131163],[22.12763697,65.53137962],[22.12738053,65.53145839],[22.12714396,65.53154719],[22.12692955,65.53164517],[22.12673936,65.53175138],[22.12657522,65.53186481],[22.12643872,65.53198434],[22.12633116,65.53210885],[22.12625358,65.53223712],[22.12620674,65.53236792],[22.12619107,65.5325],[22.12620674,65.53263208],[22.12625358,65.53276288],[22.12633116,65.53289115],[22.12643872,65.53301566],[22.12657522,65.53313519],[22.12673936,65.53324862],[22.12692955,65.53335483],[22.12714396,65.53345281],[22.12738053,65.53354161],[22.12763697,65.53362038],[22.12791081,65.53368837],[22.12819943,65.5337449],[22.12850004,65.53378945],[22.12880974,65.53382158],[22.12912556,65.53384098],[22.12944444,65.53384747],[22.12976333,65.53384098],[22.13007915,65.53382158],[22.13038885,65.53378945],[22.13068946,65.5337449],[22.13097807,65.53368837],[22.13125192,65.53362038],[22.13150836,65.53354161],[22.13174493,65.53345281],[22.13195934,65.53335483],[22.13214953,65.53324862],[22.13231366,65.53313519],[22.13245017,65.53301566],[22.13255773,65.53289115],[22.13263531,65.53276288],[22.13268215,65.53263208],[22.13269782,65.5325]]]]},"geometry_name":"the_geom","properties":{"NAME":"LULU","ID":"ESR450_1","DESIG":"ESR450","LOWER":"SFC","UPPER":"1000","FROM":"2026-03-23T00:00Z","TO":"2026-12-31T23:59Z","SCHEDULE":"23 MAR – 31 DEC H24","COM_SE":"Det tillfälliga restriktionsområdet ESR450 Lulu upprättas för militär flygverksamhet.\nInom området gäller förbud mot all luftfart som inte ingår i verksamheten.","COM_EN":"The temporary restricted area ESR450 Lulu is established for military aviation activities.\nFlight within the area prohibited for all non-participating aircraft.","URL":"https://aro.lfv.se/content/eaip/AIP%20AMDT%201-2026_2026_08_07/eSUP/AIP%20SUP%2053-2026_2026_03_23/ES-SUP-en-GB.html#SUP","COORD":"A circle with radius 0.08NM centered on 653157N 0220746E","LOW_UOM":"","UP_UOM":"ft AMSL"}},{"type":"Feature","id":"SUP.12","geometry":{"type":"MultiPolygon","coordinates":[[[[14.68416667,64.12083333],[14.66222222,64.08444444],[14.69,63.99833333],[14.71777778,63.97083333],[14.77083333,63.9275],[14.765,63.89527778],[14.71777778,63.89527778],[14.72222222,63.92333333],[14.67694444,63.96694444],[14.64527778,63.99555556],[14.61916667,64.08138889],[14.6375,64.11861111],[14.68416667,64.12083333]]]]},"geometry_name":"the_geom","properties":{"NAME":"ALMDALEN UAS","ID":"ESD840_1","DESIG":"ESD840","LOWER":"GND","UPPER":"3400","FROM":"2026-03-23T07:00Z","TO":"2026-10-30T16:00Z","SCHEDULE":"23 MAR – 30 OCT, MON – FRI 0700 – 1600 (0600 – 1500)","COM_SE":"Tillfälliga farliga områdena ESD840 Almdalen UAS, ESD841 Gäddede UAS, ESD842 Laxviken UAS, ESD843 Munsvattnet UAS, ESD817 Krokom Nord UAS och ESD818 Krokom Syd UAS upprättas för UAS som flyger utom synhåll (BVLOS).","COM_EN":"Temporary danger areas ESD840 Almdalen UAS, ESD841 Gäddede UAS, ESD842 Laxviken UAS, ESD843 Munsvattnet UAS, ESD817 Krokom Nord UAS and ESD818 Krokom Syd UAS are established for UAS flying beyond visual line of sight (BVLOS).","URL":"https://aro.lfv.se/content/eaip/AIP%20AMDT%201-2026_2026_08_07/eSUP/AIP%20SUP%2054-2026_2026_03_23/ES-SUP-en-GB.html#SUP","COORD":"","LOW_UOM":"","UP_UOM":"ft AMSL"}},{"type":"Feature","id":"SUP.13","geometry":{"type":"MultiPolygon","coordinates":[[[[14.12583333,64.51333333],[14.16944444,64.51111111],[14.20416667,64.49555556],[14.23027778,64.44444444],[14.37861111,64.37972222],[14.33944444,64.37083333],[14.17083333,64.43611111],[14.15277778,64.4775],[14.11777778,64.49722222],[14.12583333,64.51333333]]]]},"geometry_name":"the_geom","properties":{"NAME":"GÄDDEDE UAS","ID":"ESD841_1","DESIG":"ESD841","LOWER":"GND","UPPER":"2100","FROM":"2026-03-23T07:00Z","TO":"2026-10-30T16:00Z","SCHEDULE":"23 MAR – 30 OCT, MON – FRI 0700 – 1600 (0600 – 1500)","COM_SE":"Tillfälliga farliga områdena ESD840 Almdalen UAS, ESD841 Gäddede UAS, ESD842 Laxviken UAS, ESD843 Munsvattnet UAS, ESD817 Krokom Nord UAS och ESD818 Krokom Syd UAS upprättas för UAS som flyger utom synhåll (BVLOS).","COM_EN":"Temporary danger areas ESD840 Almdalen UAS, ESD841 Gäddede UAS, ESD842 Laxviken UAS, ESD843 Munsvattnet UAS, ESD817 Krokom Nord UAS and ESD818 Krokom Syd UAS are established for UAS flying beyond visual line of sight (BVLOS).","URL":"https://aro.lfv.se/content/eaip/AIP%20AMDT%201-2026_2026_08_07/eSUP/AIP%20SUP%2054-2026_2026_03_23/ES-SUP-en-GB.html#SUP","COORD":"","LOW_UOM":"","UP_UOM":"ft AMSL"}},{"type":"Feature","id":"SUP.14","geometry":{"type":"MultiPolygon","coordinates":[[[[14.765,63.89527778],[14.74916667,63.80527778],[14.67666667,63.67166667],[14.67388889,63.67666667],[14.64138889,63.68722222],[14.70416667,63.80722222],[14.71777778,63.89527778],[14.765,63.89527778]]]]},"geometry_name":"the_geom","properties":{"NAME":"LAXVIKEN UAS","ID":"ESD842_1","DESIG":"ESD842","LOWER":"GND","UPPER":"2000","FROM":"2026-03-23T07:00Z","TO":"2026-10-30T16:00Z","SCHEDULE":"23 MAR – 30 OCT, MON – FRI 0700 – 1600 (0600 – 1500)","COM_SE":"Tillfälliga farliga områdena ESD840 Almdalen UAS, ESD841 Gäddede UAS, ESD842 Laxviken UAS, ESD843 Munsvattnet UAS, ESD817 Krokom Nord UAS och ESD818 Krokom Syd UAS upprättas för UAS som flyger utom synhåll (BVLOS).","COM_EN":"Temporary danger areas ESD840 Almdalen UAS, ESD841 Gäddede UAS, ESD842 Laxviken UAS, ESD843 Munsvattnet UAS, ESD817 Krokom Nord UAS and ESD818 Krokom Syd UAS are established for UAS flying beyond visual line of sight (BVLOS).","URL":"https://aro.lfv.se/content/eaip/AIP%20AMDT%201-2026_2026_08_07/eSUP/AIP%20SUP%2054-2026_2026_03_23/ES-SUP-en-GB.html#SUP","COORD":"","LOW_UOM":"","UP_UOM":"ft AMSL"}},{"type":"Feature","id":"SUP.15","geometry":{"type":"MultiPolygon","coordinates":[[[[14.37861111,64.37972222],[14.39944444,64.35833333],[14.39861111,64.32111111],[14.42777778,64.28666667],[14.57972222,64.24388889],[14.60666667,64.21277778],[14.68416667,64.12083333],[14.6375,64.11861111],[14.56277778,64.21138889],[14.54305556,64.2325],[14.39,64.27388889],[14.35472222,64.31527778],[14.355,64.35416667],[14.33944444,64.37083333],[14.37861111,64.37972222]]]]},"geometry_name":"the_geom","properties":{"NAME":"MUNSVATTNET UAS","ID":"ESD843_1","DESIG":"ESD843","LOWER":"GND","UPPER":"3100","FROM":"2026-03-23T07:00Z","TO":"2026-10-30T16:00Z","SCHEDULE":"23 MAR – 30 OCT, MON – FRI 0700 – 1600 (0600 – 1500)","COM_SE":"Tillfälliga farliga områdena ESD840 Almdalen UAS, ESD841 Gäddede UAS, ESD842 Laxviken UAS, ESD843 Munsvattnet UAS, ESD817 Krokom Nord UAS och ESD818 Krokom Syd UAS upprättas för UAS som flyger utom synhåll (BVLOS).","COM_EN":"Temporary danger areas ESD840 Almdalen UAS, ESD841 Gäddede UAS, ESD842 Laxviken UAS, ESD843 Munsvattnet UAS, ESD817 Krokom Nord UAS and ESD818 Krokom Syd UAS are established for UAS flying beyond visual line of sight (BVLOS).","URL":"https://aro.lfv.se/content/eaip/AIP%20AMDT%201-2026_2026_08_07/eSUP/AIP%20SUP%2054-2026_2026_03_23/ES-SUP-en-GB.html#SUP","COORD":"","LOW_UOM":"","UP_UOM":"ft AMSL"}},{"type":"Feature","id":"SUP.16","geometry":{"type":"MultiPolygon","coordinates":[[[[14.55611111,63.47222222],[14.59222222,63.46583333],[14.53361111,63.3225],[14.47666667,63.31083333],[14.42416667,63.32583333],[14.45694444,63.34527778],[14.50055556,63.34638889],[14.53555556,63.42083333],[14.55611111,63.47222222]]]]},"geometry_name":"the_geom","properties":{"NAME":"KROKOM SYD UAS","ID":"ESD818_2","DESIG":"ESD818","LOWER":"GND","UPPER":"1900","FROM":"2026-05-15T07:00Z","TO":"2026-10-30T16:00Z","SCHEDULE":"15 MAY – 30 OCT, MON – FRI 0700 – 1600 (0600 – 1500)","COM_SE":"Tillfälliga farliga områdena ESD840 Almdalen UAS, ESD841 Gäddede UAS, ESD842 Laxviken UAS, ESD843 Munsvattnet UAS, ESD817 Krokom Nord UAS och ESD818 Krokom Syd UAS upprättas för UAS som flyger utom synhåll (BVLOS).","COM_EN":"Temporary danger areas ESD840 Almdalen UAS, ESD841 Gäddede UAS, ESD842 Laxviken UAS, ESD843 Munsvattnet UAS, ESD817 Krokom Nord UAS and ESD818 Krokom Syd UAS are established for UAS flying beyond visual line of sight (BVLOS).","URL":"https://aro.lfv.se/content/eaip/AIP%20AMDT%201-2026_2026_08_07/eSUP/AIP%20SUP%2054-2026_2026_03_23/ES-SUP-en-GB.html#SUP","COORD":"","LOW_UOM":"","UP_UOM":"ft AMSL"}},{"type":"Feature","id":"SUP.17","geometry":{"type":"MultiPolygon","coordinates":[[[[14.64138889,63.68722222],[14.67388889,63.67666667],[14.67666667,63.67166667],[14.59222222,63.46583333],[14.55611111,63.47222222],[14.63027778,63.65666667],[14.60361111,63.66527778],[14.59111111,63.67888889],[14.61416667,63.68333333],[14.64138889,63.68722222]]]]},"geometry_name":"the_geom","properties":{"NAME":"KROKOM NORD UAS","ID":"ESD817_2","DESIG":"ESD817","LOWER":"GND","UPPER":"1900","FROM":"2026-05-15T07:00Z","TO":"2026-10-30T16:00Z","SCHEDULE":"15 MAY – 30 OCT, MON – FRI 0700 – 1600 (0600 – 1500)","COM_SE":"Tillfälliga farliga områdena ESD840 Almdalen UAS, ESD841 Gäddede UAS, ESD842 Laxviken UAS, ESD843 Munsvattnet UAS, ESD817 Krokom Nord UAS och ESD818 Krokom Syd UAS upprättas för UAS som flyger utom synhåll (BVLOS).","COM_EN":"Temporary danger areas ESD840 Almdalen UAS, ESD841 Gäddede UAS, ESD842 Laxviken UAS, ESD843 Munsvattnet UAS, ESD817 Krokom Nord UAS and ESD818 Krokom Syd UAS are established for UAS flying beyond visual line of sight (BVLOS).","URL":"https://aro.lfv.se/content/eaip/AIP%20AMDT%201-2026_2026_08_07/eSUP/AIP%20SUP%2054-2026_2026_03_23/ES-SUP-en-GB.html#SUP","COORD":"","LOW_UOM":"","UP_UOM":"ft AMSL"}},{"type":"Feature","id":"SUP.18","geometry":{"type":"MultiPolygon","coordinates":[[[[17.696667,59.557778],[17.78,59.507778],[17.723333,59.480833],[17.633056,59.530833],[17.696667,59.557778]]]]},"geometry_name":"the_geom","properties":{"NAME":"BRUNNA","ID":"ESR534_2","DESIG":"ESR534","LOWER":"GND","UPPER":"1200","FROM":"2026-03-30T06:00Z","TO":"2026-12-31T18:30Z","SCHEDULE":"30 MAR – 27 APR, MON – FRI 0600 – 1730\n28 APR 0600 – 01 MAY 2200\n04 MAY – 23 OCT, MON – FRI 0600 – 1730\n26 OCT – 25 DEC, MON – FRI 0700 – 1830\n28 – 31 DEC 0700 – 1830","COM_SE":"Det tillfälliga restriktionsområdet ESR534 Brunna upprättas för militär flygverksamhet.\nInom området gäller förbud mot all luftfart som inte ingår i verksamheten.","COM_EN":"The temporary restricted area ESR534 Brunna is established for military aviation activities.\nFlight within the area prohibited for all non-participating aircraft.","URL":"https://aro.lfv.se/content/eaip/AIP%20AMDT%201-2026_2026_08_07/eSUP/AIP%20SUP%2083-2026_2026_04_16/ES-SUP-en-GB.html#SUP","COORD":"","LOW_UOM":"","UP_UOM":"ft AMSL"}},{"type":"Feature","id":"SUP.19","geometry":{"type":"MultiPolygon","coordinates":[[[[15.50722222,63.31083333],[16.13777778,63.25916667],[15.96138889,62.87388889],[15.17083333,62.93416667],[15.50722222,63.31083333]]]]},"geometry_name":"the_geom","properties":{"NAME":"KOVIKEN","ID":"ESD812_1","DESIG":"ESD812","LOWER":"SFC","UPPER":"2200","FROM":"2026-04-27T00:00Z","TO":"2026-12-31T23:59Z","SCHEDULE":"27 APR – 31 DEC 2026, H24","COM_SE":"Tillfälliga farliga områdenupprättade för UAS som flyger utom synhåll (BVLOS). \nInformation om verksamhetens status i området kan inhämtas på TEL +358 50 345 4683 (primär), +358 50 465 9165 (sekundär) eller operations@kelluu.com.","COM_EN":"Temporary danger areas are established for UAS flying beyond visual line of sight (BVLOS).\nInformation regarding status of the operations in the area can be obtained on +358 50 345 4683 (primary), +358 50 465 9165 (secondary) or  operations@kelluu.com.","URL":"https://aro.lfv.se/content/eaip/AIP%20AMDT%201-2026_2026_08_07/eSUP/AIP%20SUP%20101-2026_2026_05_14/ES-SUP-sv-SE.html#SUP","COORD":"","LOW_UOM":"","UP_UOM":"ft AMSL"}},{"type":"Feature","id":"SUP.20","geometry":{"type":"MultiPolygon","coordinates":[[[[17.68444444,62.95777778],[17.80138889,62.82055556],[17.71444444,62.70944444],[17.62972222,62.5575],[17.42694444,62.69916667],[17.24805556,62.8525],[17.68444444,62.95777778]]]]},"geometry_name":"the_geom","properties":{"NAME":"VIKSJÖ","ID":"ESD807_1","DESIG":"ESD807","LOWER":"SFC","UPPER":"2000","FROM":"2026-04-27T00:00Z","TO":"2026-12-31T23:59Z","SCHEDULE":"27 APR – 31 DEC 2026, H24","COM_SE":"Tillfälliga farliga områdenupprättade för UAS som flyger utom synhåll (BVLOS). \nInformation om verksamhetens status i området kan inhämtas på TEL +358 50 345 4683 (primär), +358 50 465 9165 (sekundär) eller operations@kelluu.com.","COM_EN":"Temporary danger areas are established for UAS flying beyond visual line of sight (BVLOS).\nInformation regarding status of the operations in the area can be obtained on +358 50 345 4683 (primary), +358 50 465 9165 (secondary) or  operations@kelluu.com.","URL":"https://aro.lfv.se/content/eaip/AIP%20AMDT%201-2026_2026_08_07/eSUP/AIP%20SUP%20101-2026_2026_05_14/ES-SUP-sv-SE.html#SUP","COORD":"","LOW_UOM":"","UP_UOM":"ft AMSL"}},{"type":"Feature","id":"SUP.21","geometry":{"type":"MultiPolygon","coordinates":[[[[15.96138889,62.87388889],[16.69333333,62.83444444],[16.64305556,62.45861111],[15.78722222,62.50055556],[15.96138889,62.87388889]]]]},"geometry_name":"the_geom","properties":{"NAME":"ÖRSVIKEN","ID":"ESD808_1","DESIG":"ESD808","LOWER":"SFC","UPPER":"2200","FROM":"2026-04-27T00:00Z","TO":"2026-12-31T23:59Z","SCHEDULE":"27 APR – 31 DEC 2026, H24","COM_SE":"Tillfälliga farliga områdenupprättade för UAS som flyger utom synhåll (BVLOS). \nInformation om verksamhetens status i området kan inhämtas på TEL +358 50 345 4683 (primär), +358 50 465 9165 (sekundär) eller operations@kelluu.com.","COM_EN":"Temporary danger areas are established for UAS flying beyond visual line of sight (BVLOS).\nInformation regarding status of the operations in the area can be obtained on +358 50 345 4683 (primary), +358 50 465 9165 (secondary) or  operations@kelluu.com.","URL":"https://aro.lfv.se/content/eaip/AIP%20AMDT%201-2026_2026_08_07/eSUP/AIP%20SUP%20101-2026_2026_05_14/ES-SUP-sv-SE.html#SUP","COORD":"","LOW_UOM":"","UP_UOM":"ft AMSL"}},{"type":"Feature","id":"SUP.22","geometry":{"type":"MultiPolygon","coordinates":[[[[15.17083333,62.93416667],[15.96138889,62.87388889],[15.78722222,62.50055556],[14.82916667,62.54722222],[15.17083333,62.93416667]]]]},"geometry_name":"the_geom","properties":{"NAME":"BRÄCKE","ID":"ESD809_1","DESIG":"ESD809","LOWER":"SFC","UPPER":"2200","FROM":"2026-04-27T00:00Z","TO":"2026-12-31T23:59Z","SCHEDULE":"27 APR – 31 DEC 2026, H24","COM_SE":"Tillfälliga farliga områdenupprättade för UAS som flyger utom synhåll (BVLOS). \nInformation om verksamhetens status i området kan inhämtas på TEL +358 50 345 4683 (primär), +358 50 465 9165 (sekundär) eller operations@kelluu.com.","COM_EN":"Temporary danger areas are established for UAS flying beyond visual line of sight (BVLOS).\nInformation regarding status of the operations in the area can be obtained on +358 50 345 4683 (primary), +358 50 465 9165 (secondary) or  operations@kelluu.com.","URL":"https://aro.lfv.se/content/eaip/AIP%20AMDT%201-2026_2026_08_07/eSUP/AIP%20SUP%20101-2026_2026_05_14/ES-SUP-sv-SE.html#SUP","COORD":"","LOW_UOM":"","UP_UOM":"ft AMSL"}},{"type":"Feature","id":"SUP.23","geometry":{"type":"MultiPolygon","coordinates":[[[[16.72055556,63.21138889],[16.97888889,63.19027778],[17.23722222,63.16888889],[17.22972222,63.09888889],[17.22527778,63.04583333],[17.41583333,63.04916667],[17.59527778,63.0625],[17.68444444,62.95777778],[17.46638889,62.905],[17.24805556,62.8525],[16.97083333,62.84361111],[16.69333333,62.83444444],[16.70694444,63.02305556],[16.72055556,63.21138889]]]]},"geometry_name":"the_geom","properties":{"NAME":"GRANINGE","ID":"ESD844_1","DESIG":"ESD844","LOWER":"SFC","UPPER":"2000","FROM":"2026-04-27T00:00Z","TO":"2026-12-31T23:59Z","SCHEDULE":"27 APR – 31 DEC 2026, H24","COM_SE":"Tillfälliga farliga områdenupprättade för UAS som flyger utom synhåll (BVLOS). \nInformation om verksamhetens status i området kan inhämtas på TEL +358 50 345 4683 (primär), +358 50 465 9165 (sekundär) eller operations@kelluu.com.","COM_EN":"Temporary danger areas are established for UAS flying beyond visual line of sight (BVLOS).\nInformation regarding status of the operations in the area can be obtained on +358 50 345 4683 (primary), +358 50 465 9165 (secondary) or  operations@kelluu.com.","URL":"https://aro.lfv.se/content/eaip/AIP%20AMDT%201-2026_2026_08_07/eSUP/AIP%20SUP%20101-2026_2026_05_14/ES-SUP-sv-SE.html#SUP","COORD":"","LOW_UOM":"","UP_UOM":"ft AMSL"}},{"type":"Feature","id":"SUP.24","geometry":{"type":"MultiPolygon","coordinates":[[[[16.13777778,63.25916667],[16.72055556,63.21138889],[16.69333333,62.83444444],[15.96138889,62.87388889],[16.13777778,63.25916667]]]]},"geometry_name":"the_geom","properties":{"NAME":"RAGUNDA","ID":"ESD811_1","DESIG":"ESD811","LOWER":"SFC","UPPER":"2000","FROM":"2026-04-27T00:00Z","TO":"2026-12-31T23:59Z","SCHEDULE":"27 APR – 31 DEC 2026, H24","COM_SE":"Tillfälliga farliga områdenupprättade för UAS som flyger utom synhåll (BVLOS). \nInformation om verksamhetens status i området kan inhämtas på TEL +358 50 345 4683 (primär), +358 50 465 9165 (sekundär) eller operations@kelluu.com.","COM_EN":"Temporary danger areas are established for UAS flying beyond visual line of sight (BVLOS).\nInformation regarding status of the operations in the area can be obtained on +358 50 345 4683 (primary), +358 50 465 9165 (secondary) or  operations@kelluu.com.","URL":"https://aro.lfv.se/content/eaip/AIP%20AMDT%201-2026_2026_08_07/eSUP/AIP%20SUP%20101-2026_2026_05_14/ES-SUP-sv-SE.html#SUP","COORD":"","LOW_UOM":"","UP_UOM":"ft AMSL"}},{"type":"Feature","id":"SUP.25","geometry":{"type":"MultiPolygon","coordinates":[[[[17.24805556,62.8525],[17.42694444,62.69916667],[17.22972222,62.66861111],[17.24666667,62.50888889],[17.44861111,62.30055556],[16.64305556,62.45861111],[16.69333333,62.83444444],[17.24805556,62.8525]]]]},"geometry_name":"the_geom","properties":{"NAME":"SULÅ","ID":"ESD806_1","DESIG":"ESD806","LOWER":"SFC","UPPER":"2000","FROM":"2026-04-27T00:00Z","TO":"2026-12-31T23:59Z","SCHEDULE":"27 APR – 31 DEC 2026, H24","COM_SE":"Tillfälliga farliga områdenupprättade för UAS som flyger utom synhåll (BVLOS). \nInformation om verksamhetens status i området kan inhämtas på TEL +358 50 345 4683 (primär), +358 50 465 9165 (sekundär) eller operations@kelluu.com.","COM_EN":"Temporary danger areas are established for UAS flying beyond visual line of sight (BVLOS).\nInformation regarding status of the operations in the area can be obtained on +358 50 345 4683 (primary), +358 50 465 9165 (secondary) or  operations@kelluu.com.","URL":"https://aro.lfv.se/content/eaip/AIP%20AMDT%201-2026_2026_08_07/eSUP/AIP%20SUP%20101-2026_2026_05_14/ES-SUP-sv-SE.html#SUP","COORD":"","LOW_UOM":"","UP_UOM":"ft AMSL"}},{"type":"Feature","id":"SUP.26","geometry":{"type":"MultiPolygon","coordinates":[[[[20.94861111,64.74583333],[20.96666667,64.72972222],[20.97305556,64.71083333],[20.75527778,64.685],[20.695,64.70388889],[20.76861111,64.74027778],[20.94861111,64.74583333]]]]},"geometry_name":"the_geom","properties":{"NAME":"SKELLEFTEÅ VIKEN UAS","ID":"ESD821_1","DESIG":"ESD821","LOWER":"GND","UPPER":"1500","FROM":"2026-06-08T07:00Z","TO":"2027-05-31T16:00Z","SCHEDULE":"08 JUN 2026 – 31 MAY 2027 MON – THU 0700 – 1600 (0600 – 1500)","COM_SE":"Tillfälligt farligt område ESD821 Skellefteå Viken UAS är upprättat för UAS som flyger utom synhåll (BVLOS) med särskilda villkor.","COM_EN":"Temporary danger area ESD821 Skellefteå Viken UAS is established for UAS flying beyond visual line of sight (BVLOS) with special permission.","URL":"https://aro.lfv.se/content/eaip/AIP%20AMDT%201-2026_2026_08_07/eSUP/AIP%20SUP%20111-2026_2026_06_08/ES-SUP-en-GB.html#SUP","COORD":"","LOW_UOM":"","UP_UOM":"ft AMSL"}},{"type":"Feature","id":"SUP.27","geometry":{"type":"MultiPolygon","coordinates":[[[[17.08888889,65.30666667],[17.1925,65.28722222],[17.18666667,65.23527778],[17.02722222,65.16416667],[16.78333333,65.2375],[16.92277778,65.2975],[17.08888889,65.30666667]]]]},"geometry_name":"the_geom","properties":{"NAME":"STORUMAN RENBERG","ID":"ESD852_1","DESIG":"ESD852","LOWER":"SFC","UPPER":"2300","FROM":"2026-06-22T00:00Z","TO":"2026-10-23T23:59Z","SCHEDULE":"22 JUN – 23 OCT, H24","COM_SE":"Tillfälliga farliga områden ESD850 Moskosel Suddesjaur, ESD851 Arvidsjaur Revensberg, ESD852 Storuman Renberg och ESD853 Sorsele Ardnasjavrrie upprättas för UAS som flyger utom synhåll (BVLOS) enligt särskilt tillstånd.","COM_EN":"Temporary danger areas ESD850 Moskosel Suddesjaur, ESD851 Arvidsjaur Revensberg, ESD852 Storuman Renberg and ESD853 Sorsele Ardnasjavrrie established for UAS flying beyond visual line of sight (BVLOS) according to special permission.","URL":"https://aro.lfv.se/content/eaip/AIP%20AMDT%201-2026_2026_08_07/eSUP/AIP%20SUP%20163-2026_2026_09_10/ES-SUP-en-GB.html#SUP","COORD":"","LOW_UOM":"","UP_UOM":"ft AMSL"}},{"type":"Feature","id":"SUP.28","geometry":{"type":"MultiPolygon","coordinates":[[[[17.85305556,65.72611111],[17.97611111,65.69388889],[18.01194444,65.65277778],[17.82666667,65.54472222],[17.64166667,65.59638889],[17.85305556,65.72611111]]]]},"geometry_name":"the_geom","properties":{"NAME":"SORSELE ARDNASJAVRRIE","ID":"ESD853_1","DESIG":"ESD853","LOWER":"SFC","UPPER":"2200","FROM":"2026-06-22T00:00Z","TO":"2026-10-23T23:59Z","SCHEDULE":"22 JUN – 23 OCT, H24","COM_SE":"Tillfälliga farliga områden ESD850 Moskosel Suddesjaur, ESD851 Arvidsjaur Revensberg, ESD852 Storuman Renberg och ESD853 Sorsele Ardnasjavrrie upprättas för UAS som flyger utom synhåll (BVLOS) enligt särskilt tillstånd.","COM_EN":"Temporary danger areas ESD850 Moskosel Suddesjaur, ESD851 Arvidsjaur Revensberg, ESD852 Storuman Renberg and ESD853 Sorsele Ardnasjavrrie established for UAS flying beyond visual line of sight (BVLOS) according to special permission.","URL":"https://aro.lfv.se/content/eaip/AIP%20AMDT%201-2026_2026_08_07/eSUP/AIP%20SUP%20163-2026_2026_09_10/ES-SUP-en-GB.html#SUP","COORD":"","LOW_UOM":"","UP_UOM":"ft AMSL"}},{"type":"Feature","id":"SUP.29","geometry":{"type":"MultiPolygon","coordinates":[[[[18.91361111,65.985],[19.21222222,65.93777778],[19.135,65.81305556],[18.90305556,65.81888889],[18.78138889,65.86944444],[18.91361111,65.985]]]]},"geometry_name":"the_geom","properties":{"NAME":"MOSKOSEL SUDDESJAUR","ID":"ESD850_1","DESIG":"ESD850","LOWER":"SFC","UPPER":"2200","FROM":"2026-06-22T00:00Z","TO":"2026-10-23T23:59Z","SCHEDULE":"22 JUN – 23 OCT, H24","COM_SE":"Tillfälliga farliga områden ESD850 Moskosel Suddesjaur, ESD851 Arvidsjaur Revensberg, ESD852 Storuman Renberg och ESD853 Sorsele Ardnasjavrrie upprättas för UAS som flyger utom synhåll (BVLOS) enligt särskilt tillstånd.","COM_EN":"Temporary danger areas ESD850 Moskosel Suddesjaur, ESD851 Arvidsjaur Revensberg, ESD852 Storuman Renberg and ESD853 Sorsele Ardnasjavrrie established for UAS flying beyond visual line of sight (BVLOS) according to special permission.","URL":"https://aro.lfv.se/content/eaip/AIP%20AMDT%201-2026_2026_08_07/eSUP/AIP%20SUP%20163-2026_2026_09_10/ES-SUP-en-GB.html#SUP","COORD":"","LOW_UOM":"","UP_UOM":"ft AMSL"}},{"type":"Feature","id":"SUP.30","geometry":{"type":"MultiPolygon","coordinates":[[[[18.78666667,65.76888889],[19.09833333,65.66055556],[19.08972222,65.61083333],[19.04472222,65.60166667],[19.03,65.58277778],[18.95361111,65.58472222],[18.6625,65.70861111],[18.67861111,65.76194444],[18.78666667,65.76888889]]]]},"geometry_name":"the_geom","properties":{"NAME":"ARVIDSJAUR REVENSBERG","ID":"ESD851_1","DESIG":"ESD851","LOWER":"SFC","UPPER":"2300","FROM":"2026-06-22T00:00Z","TO":"2026-10-23T23:59Z","SCHEDULE":"22 JUN – 23 OCT, H24","COM_SE":"Tillfälliga farliga områden ESD850 Moskosel Suddesjaur, ESD851 Arvidsjaur Revensberg, ESD852 Storuman Renberg och ESD853 Sorsele Ardnasjavrrie upprättas för UAS som flyger utom synhåll (BVLOS) enligt särskilt tillstånd.","COM_EN":"Temporary danger areas ESD850 Moskosel Suddesjaur, ESD851 Arvidsjaur Revensberg, ESD852 Storuman Renberg and ESD853 Sorsele Ardnasjavrrie established for UAS flying beyond visual line of sight (BVLOS) according to special permission.","URL":"https://aro.lfv.se/content/eaip/AIP%20AMDT%201-2026_2026_08_07/eSUP/AIP%20SUP%20163-2026_2026_09_10/ES-SUP-en-GB.html#SUP","COORD":"","LOW_UOM":"","UP_UOM":"ft AMSL"}},{"type":"Feature","id":"SUP.31","geometry":{"type":"MultiPolygon","coordinates":[[[[18.04805556,59.24944444],[18.16333333,59.24944444],[18.09027778,59.21805556],[18.04805556,59.24944444]]]]},"geometry_name":"the_geom","properties":{"NAME":"FARSTA UAS","ID":"ESD891_Z","DESIG":"ESD891","LOWER":"GND","UPPER":"600","FROM":"2026-08-17T07:00Z","TO":"2026-12-31T21:30Z","SCHEDULE":"17 AUG – 31 DEC 2026, daily 0700 – 2130 (0600 – 2030)","COM_SE":"Tillfälliga farliga områden ESD891 Farsta UAS, ESD892 Bollmora UAS, ESD893 Skogås UAS, ESD894 Vega UAS och ESD895 Sjödalen UAS upprättas för UAS som flyger utom synhåll (BVLOS).","COM_EN":"Temporary danger areas ESD891 Farsta UAS, ESD892 Bollmora UAS, ESD893 Skogås UAS, ESD894 Vega UAS and ESD895 Sjödalen UAS established for UAS flying beyond visual line of sight (BVLOS).","URL":"https://aro.lfv.se/content/eaip/AIP%20AMDT%201-2026_2026_08_07/eSUP/AIP%20SUP%20125-2026_2026_08_17/ES-SUP-sv-SE.html#SUP","COORD":"","LOW_UOM":"","UP_UOM":"ft AMSL"}},{"type":"Feature","id":"SUP.32","geometry":{"type":"MultiPolygon","coordinates":[[[[18.24472222,59.25694444],[18.24805556,59.21888889],[18.14111111,59.24],[18.16333333,59.24944444],[18.24472222,59.25694444]]]]},"geometry_name":"the_geom","properties":{"NAME":"BOLLMORA UAS","ID":"ESD892_z","DESIG":"ESD892","LOWER":"GND","UPPER":"600","FROM":"2026-08-17T07:00Z","TO":"2026-12-31T21:30Z","SCHEDULE":"17 AUG – 31 DEC 2026, daily 0700 – 2130 (0600 – 2030)","COM_SE":"Tillfälliga farliga områden ESD891 Farsta UAS, ESD892 Bollmora UAS, ESD893 Skogås UAS, ESD894 Vega UAS och ESD895 Sjödalen UAS upprättas för UAS som flyger utom synhåll (BVLOS).","COM_EN":"Temporary danger areas ESD891 Farsta UAS, ESD892 Bollmora UAS, ESD893 Skogås UAS, ESD894 Vega UAS and ESD895 Sjödalen UAS established for UAS flying beyond visual line of sight (BVLOS).","URL":"https://aro.lfv.se/content/eaip/AIP%20AMDT%201-2026_2026_08_07/eSUP/AIP%20SUP%20125-2026_2026_08_17/ES-SUP-sv-SE.html#SUP","COORD":"","LOW_UOM":"","UP_UOM":"ft AMSL"}},{"type":"Feature","id":"SUP.33","geometry":{"type":"MultiPolygon","coordinates":[[[[18.14111111,59.24],[18.24805556,59.21888889],[18.21194444,59.18416667],[18.1075,59.22555556],[18.14111111,59.24]]]]},"geometry_name":"the_geom","properties":{"NAME":"SKOGÅS UAS","ID":"ESD893_z","DESIG":"ESD893","LOWER":"GND","UPPER":"600","FROM":"2026-08-17T07:00Z","TO":"2026-12-31T21:30Z","SCHEDULE":"17 AUG – 31 DEC 2026, daily 0700 – 2130 (0600 – 2030)","COM_SE":"Tillfälliga farliga områden ESD891 Farsta UAS, ESD892 Bollmora UAS, ESD893 Skogås UAS, ESD894 Vega UAS och ESD895 Sjödalen UAS upprättas för UAS som flyger utom synhåll (BVLOS).","COM_EN":"Temporary danger areas ESD891 Farsta UAS, ESD892 Bollmora UAS, ESD893 Skogås UAS, ESD894 Vega UAS and ESD895 Sjödalen UAS established for UAS flying beyond visual line of sight (BVLOS).","URL":"https://aro.lfv.se/content/eaip/AIP%20AMDT%201-2026_2026_08_07/eSUP/AIP%20SUP%20125-2026_2026_08_17/ES-SUP-sv-SE.html#SUP","COORD":"","LOW_UOM":"","UP_UOM":"ft AMSL"}},{"type":"Feature","id":"SUP.34","geometry":{"type":"MultiPolygon","coordinates":[[[[18.1075,59.22555556],[18.21194444,59.18416667],[18.13361111,59.1725],[18.05333333,59.20222222],[18.1075,59.22555556]]]]},"geometry_name":"the_geom","properties":{"NAME":"VEGA UAS","ID":"ESD894_z","DESIG":"ESD894","LOWER":"GND","UPPER":"600","FROM":"2026-08-17T07:00Z","TO":"2026-12-31T21:30Z","SCHEDULE":"17 AUG – 31 DEC 2026, daily 0700 – 2130 (0600 – 2030)","COM_SE":"Tillfälliga farliga områden ESD891 Farsta UAS, ESD892 Bollmora UAS, ESD893 Skogås UAS, ESD894 Vega UAS och ESD895 Sjödalen UAS upprättas för UAS som flyger utom synhåll (BVLOS).","COM_EN":"Temporary danger areas ESD891 Farsta UAS, ESD892 Bollmora UAS, ESD893 Skogås UAS, ESD894 Vega UAS and ESD895 Sjödalen UAS established for UAS flying beyond visual line of sight (BVLOS).","URL":"https://aro.lfv.se/content/eaip/AIP%20AMDT%201-2026_2026_08_07/eSUP/AIP%20SUP%20125-2026_2026_08_17/ES-SUP-sv-SE.html#SUP","COORD":"","LOW_UOM":"","UP_UOM":"ft AMSL"}},{"type":"Feature","id":"SUP.35","geometry":{"type":"MultiPolygon","coordinates":[[[[17.99388889,59.24944444],[18.04805556,59.24944444],[18.09027778,59.21805556],[18.05333333,59.20222222],[17.99416667,59.22416667],[17.99388889,59.24944444]]]]},"geometry_name":"the_geom","properties":{"NAME":"SJÖDALEN UAS","ID":"ESD895_z","DESIG":"ESD895","LOWER":"GND","UPPER":"600","FROM":"2026-08-17T07:00Z","TO":"2026-12-31T21:30Z","SCHEDULE":"17 AUG – 31 DEC 2026, daily 0700 – 2130 (0600 – 2030)","COM_SE":"Tillfälliga farliga områden ESD891 Farsta UAS, ESD892 Bollmora UAS, ESD893 Skogås UAS, ESD894 Vega UAS och ESD895 Sjödalen UAS upprättas för UAS som flyger utom synhåll (BVLOS).","COM_EN":"Temporary danger areas ESD891 Farsta UAS, ESD892 Bollmora UAS, ESD893 Skogås UAS, ESD894 Vega UAS and ESD895 Sjödalen UAS established for UAS flying beyond visual line of sight (BVLOS).","URL":"https://aro.lfv.se/content/eaip/AIP%20AMDT%201-2026_2026_08_07/eSUP/AIP%20SUP%20125-2026_2026_08_17/ES-SUP-sv-SE.html#SUP","COORD":"","LOW_UOM":"","UP_UOM":"ft AMSL"}},{"type":"Feature","id":"SUP.36","geometry":{"type":"MultiPolygon","coordinates":[[[[13.25731818,54.97222222],[13.2568576,54.96684094],[13.25548027,54.96151148],[13.25319946,54.95628518],[13.25003715,54.95121235],[13.24602377,54.94634186],[13.241198,54.94172062],[13.23560629,54.93739312],[13.2293025,54.93340104],[13.22234735,54.92978284],[13.2148078,54.92657335],[13.20675648,54.92380348],[13.19827092,54.92149991],[13.18943284,54.91968482],[13.18032735,54.9183757],[13.17104215,54.91758515],[13.16166667,54.91732079],[13.15229118,54.91758515],[13.14300598,54.9183757],[13.1339005,54.91968482],[13.12506242,54.92149991],[13.11657685,54.92380348],[13.10852553,54.92657335],[13.10098599,54.92978284],[13.09403083,54.93340104],[13.08772704,54.93739312],[13.08213534,54.94172062],[13.07730956,54.94634186],[13.07329619,54.95121235],[13.07013387,54.95628518],[13.06785307,54.96151148],[13.06647574,54.96684094],[13.06601515,54.97222222],[13.06647574,54.9776035],[13.06785307,54.98293296],[13.07013387,54.98815927],[13.07329619,54.99323209],[13.07730956,54.99810258],[13.08213534,55.00272383],[13.08772704,55.00705133],[13.09403083,55.0110434],[13.10098599,55.01466161],[13.10852553,55.0178711],[13.11657685,55.02064097],[13.12506242,55.02294454],[13.1339005,55.02475962],[13.14300598,55.02606874],[13.15229118,55.02685929],[13.16166667,55.02712366],[13.17104215,55.02685929],[13.18032735,55.02606874],[13.18943284,55.02475962],[13.19827092,55.02294454],[13.20675648,55.02064097],[13.2148078,55.0178711],[13.22234735,55.01466161],[13.2293025,55.0110434],[13.23560629,55.00705133],[13.241198,55.00272383],[13.24602377,54.99810258],[13.25003715,54.99323209],[13.25319946,54.98815927],[13.25548027,54.98293296],[13.2568576,54.9776035],[13.25731818,54.97222222]]]]},"geometry_name":"the_geom","properties":{"NAME":"BALTIC OFFSHORE WIND","ID":"ESD831_2","DESIG":"ESD831","LOWER":"GND","UPPER":"1100","FROM":"2026-08-01T00:00Z","TO":"2026-10-31T23:59Z","SCHEDULE":"01 AUG – 31 OCT 2026, H24","COM_SE":"Tillfälligt farligt område ESD831 Baltic Offshore Wind upprättas för UAS som flyger utom synhåll (BVLOS) med särskilda villkor.","COM_EN":"Temporary danger area ESD831 Baltic Offshore Wind established for UAS flying beyond visual line of sight (BVLOS) with special permission.","URL":"https://aro.lfv.se/content/eaip/AIP%20AMDT%201-2026_2026_08_07/eSUP/AIP%20SUP%20124-2026_2026_08_01/ES-SUP-sv-SE.html#SUP","COORD":"A circle with radius 3.3 NM centred on 545820N 0130942E","LOW_UOM":"","UP_UOM":"ft AMSL"}},{"type":"Feature","id":"SUP.37","geometry":{"type":"MultiPolygon","coordinates":[[[[12.79138889,63.68],[12.89333333,63.66777778],[12.9,63.64722222],[12.89111111,63.62111111],[12.83388889,63.62583333],[12.81027778,63.64888889],[12.73083333,63.6575],[12.79138889,63.68]]]]},"geometry_name":"the_geom","properties":{"NAME":"KALLSJÖN WEST UAS","ID":"ESD878_2","DESIG":"ESD878","LOWER":"SFC","UPPER":"3100","FROM":"2026-07-23T00:00Z","TO":"2026-10-23T23:59Z","SCHEDULE":"23 JUL 2026 - 23 OCT 2026, H24","COM_SE":"Tillfälliga farliga områden ESD877 Hotagen UAS, ESD878 Kallsjön West UAS, ESD879 Kallsjön North UAS och ESD880 Kallsjön South UAS upprättas för UAS som flyger utom synhåll (BVLOS) med särskilda villkor.","COM_EN":"Temporary danger areas ESD877 Hotagen UAS, ESD878 Kallsjön West UAS, ESD879 Kallsjön North UAS and ESD880 Kallsjön South UAS established for UAS flying beyond visual line of sight (BVLOS) with special permission.","URL":"https://aro.lfv.se/content/eaip/AIP%20AMDT%201-2026_2026_08_07/eSUP/AIP%20SUP%20122-2026_2026_07_23/ES-SUP-sv-SE.html#SUP","COORD":"","LOW_UOM":"","UP_UOM":"ft AMSL"}},{"type":"Feature","id":"SUP.38","geometry":{"type":"MultiPolygon","coordinates":[[[[13.71527778,64.02944444],[13.87805556,64.00444444],[13.82416667,63.95694444],[13.64138889,63.87],[13.39416667,63.91888889],[13.46416667,63.99138889],[13.71527778,64.02944444]]]]},"geometry_name":"the_geom","properties":{"NAME":"HOTAGEN UAS","ID":"ESD877_2","DESIG":"ESD877","LOWER":"SFC","UPPER":"4600","FROM":"2026-07-23T00:00Z","TO":"2026-10-23T23:59Z","SCHEDULE":"23 JUL 2026 - 23 OCT 2026, H24","COM_SE":"Tillfälliga farliga områden ESD877 Hotagen UAS, ESD878 Kallsjön West UAS, ESD879 Kallsjön North UAS och ESD880 Kallsjön South UAS upprättas för UAS som flyger utom synhåll (BVLOS) med särskilda villkor.","COM_EN":"Temporary danger areas ESD877 Hotagen UAS, ESD878 Kallsjön West UAS, ESD879 Kallsjön North UAS and ESD880 Kallsjön South UAS established for UAS flying beyond visual line of sight (BVLOS) with special permission.","URL":"https://aro.lfv.se/content/eaip/AIP%20AMDT%201-2026_2026_08_07/eSUP/AIP%20SUP%20122-2026_2026_07_23/ES-SUP-sv-SE.html#SUP","COORD":"","LOW_UOM":"","UP_UOM":"ft AMSL"}},{"type":"Feature","id":"SUP.39","geometry":{"type":"MultiPolygon","coordinates":[[[[13.39611111,63.48416667],[13.5575,63.48472222],[13.57527778,63.41694444],[13.4,63.41583333],[13.39611111,63.48416667]]]]},"geometry_name":"the_geom","properties":{"NAME":"KALLSJÖN SOUTH UAS","ID":"ESD880_2","DESIG":"ESD880","LOWER":"SFC","UPPER":"2600","FROM":"2026-07-23T00:00Z","TO":"2026-10-23T23:59Z","SCHEDULE":"23 JUL 2026 - 23 OCT 2026, H24","COM_SE":"Tillfälliga farliga områden ESD877 Hotagen UAS, ESD878 Kallsjön West UAS, ESD879 Kallsjön North UAS och ESD880 Kallsjön South UAS upprättas för UAS som flyger utom synhåll (BVLOS) med särskilda villkor.","COM_EN":"Temporary danger areas ESD877 Hotagen UAS, ESD878 Kallsjön West UAS, ESD879 Kallsjön North UAS and ESD880 Kallsjön South UAS established for UAS flying beyond visual line of sight (BVLOS) with special permission.","URL":"https://aro.lfv.se/content/eaip/AIP%20AMDT%201-2026_2026_08_07/eSUP/AIP%20SUP%20122-2026_2026_07_23/ES-SUP-sv-SE.html#SUP","COORD":"","LOW_UOM":"","UP_UOM":"ft AMSL"}},{"type":"Feature","id":"SUP.40","geometry":{"type":"MultiPolygon","coordinates":[[[[13.66722222,63.71666667],[13.63027778,63.59166667],[13.46472222,63.54277778],[13.25805556,63.65638889],[13.30138889,63.69944444],[13.66722222,63.71666667]]]]},"geometry_name":"the_geom","properties":{"NAME":"KALLSJÖN NORTH UAS","ID":"ESD879_2","DESIG":"ESD879","LOWER":"SFC","UPPER":"2800","FROM":"2026-07-23T00:00Z","TO":"2026-10-23T23:59Z","SCHEDULE":"23 JUL 2026 - 23 OCT 2026, H24","COM_SE":"Tillfälliga farliga områden ESD877 Hotagen UAS, ESD878 Kallsjön West UAS, ESD879 Kallsjön North UAS och ESD880 Kallsjön South UAS upprättas för UAS som flyger utom synhåll (BVLOS) med särskilda villkor.","COM_EN":"Temporary danger areas ESD877 Hotagen UAS, ESD878 Kallsjön West UAS, ESD879 Kallsjön North UAS and ESD880 Kallsjön South UAS established for UAS flying beyond visual line of sight (BVLOS) with special permission.","URL":"https://aro.lfv.se/content/eaip/AIP%20AMDT%201-2026_2026_08_07/eSUP/AIP%20SUP%20122-2026_2026_07_23/ES-SUP-sv-SE.html#SUP","COORD":"","LOW_UOM":"","UP_UOM":"ft AMSL"}},{"type":"Feature","id":"SUP.41","geometry":{"type":"MultiPolygon","coordinates":[[[[17.40732504,61.23333333],[17.40705703,61.23070792],[17.40625558,61.22810779],[17.40492841,61.22555799],[17.4030883,61.22308306],[17.40075297,61.22070686],[17.39794491,61.21845225],[17.39469117,61.21634095],[17.39102308,61.2143933],[17.38697597,61.21262806],[17.3825888,61.21106221],[17.37790384,61.20971085],[17.3729662,61.20858699],[17.36782344,61.20770145],[17.36252508,61.20706276],[17.35712214,61.20667707],[17.35166667,61.20654809],[17.34621119,61.20667707],[17.34080826,61.20706276],[17.33550989,61.20770145],[17.33036713,61.20858699],[17.32542949,61.20971085],[17.32074453,61.21106221],[17.31635737,61.21262806],[17.31231025,61.2143933],[17.30864216,61.21634095],[17.30538842,61.21845225],[17.30258036,61.22070686],[17.30024503,61.22308306],[17.29840492,61.22555799],[17.29707775,61.22810779],[17.2962763,61.23070792],[17.29600829,61.23333333],[17.2962763,61.23595875],[17.29707775,61.23855888],[17.29840492,61.24110868],[17.30024503,61.2435836],[17.30258036,61.24595981],[17.30538842,61.24821442],[17.30864216,61.25032571],[17.31231025,61.25227336],[17.31635737,61.25403861],[17.32074453,61.25560445],[17.32542949,61.25695581],[17.33036713,61.25807967],[17.33550989,61.25896522],[17.34080826,61.25960391],[17.34621119,61.2599896],[17.35166667,61.26011858],[17.35712214,61.2599896],[17.36252508,61.25960391],[17.36782344,61.25896522],[17.3729662,61.25807967],[17.37790384,61.25695581],[17.3825888,61.25560445],[17.38697597,61.25403861],[17.39102308,61.25227336],[17.39469117,61.25032571],[17.39794491,61.24821442],[17.40075297,61.24595981],[17.4030883,61.2435836],[17.40492841,61.24110868],[17.40625558,61.23855888],[17.40705703,61.23595875],[17.40732504,61.23333333]]]]},"geometry_name":"the_geom","properties":{"NAME":"SÖDERHAMN ENSKÄR","ID":"ESR803_1","DESIG":"ESR803","LOWER":"SFC","UPPER":"FL95","FROM":"2026-08-10T05:00Z","TO":"2026-11-10T19:00Z","SCHEDULE":"10 AUG – 24 OCT 0500 – 1800\n25 OCT – 10 NOV 0600 – 1900","COM_SE":"Det tillfälliga restriktionsområdet ESR803 Söderhamn Enskär upprättas för test och utprovning av raketer.","COM_EN":"The temporary restricted area ESR803 Söderhamn Enskär is established for rocket testing and evaluation.","URL":"https://aro.lfv.se/content/eaip/AIP%20AMDT%201-2026_2026_08_07/eSUP/AIP%20SUP%20175-2026_2026_09_24/ES-SUP-en-GB.html#SUP","COORD":"A circle with radius 1.61 NM centered on 611400N 0172106E","LOW_UOM":"","UP_UOM":""}},{"type":"Feature","id":"SUP.42","geometry":{"type":"MultiPolygon","coordinates":[[[[16.13916667,58.61333333],[16.13916667,58.61333333],[16.14583333,58.6125],[16.15027778,58.61194444],[16.15333333,58.61055556],[16.16083333,58.60944444],[16.17611111,58.60583333],[16.18472222,58.60388889],[16.18722222,58.60138889],[16.19166667,58.59694444],[16.19416667,58.59388889],[16.1975,58.59305556],[16.20083333,58.58583333],[16.20722222,58.58361111],[16.21,58.58222222],[16.21083333,58.58111111],[16.21583333,58.56944444],[16.21722222,58.56805556],[16.22,58.56555556],[16.22638889,58.56027778],[16.23222222,58.55722222],[16.21888889,58.54944444],[16.17388889,58.55194444],[16.16583333,58.54777778],[16.15638889,58.5525],[16.08833333,58.55916667],[16.07694444,58.56888889],[16.07944444,58.57],[16.095,58.575],[16.10861111,58.57916667],[16.11277778,58.58027778],[16.11833333,58.5825],[16.1225,58.58416667],[16.12527778,58.58555556],[16.12666667,58.58611111],[16.12833333,58.58888889],[16.12916667,58.59111111],[16.12805556,58.59444444],[16.1275,58.59555556],[16.12583333,58.60055556],[16.12722222,58.60361111],[16.13277778,58.60916667],[16.13916667,58.61333333]]]]},"geometry_name":"the_geom","properties":{"NAME":"NORRKÖPING","ID":"ESD653_1","DESIG":"ESD653","LOWER":"260","UPPER":"500","FROM":"2026-09-01T00:00Z","TO":"2027-03-31T23:59Z","SCHEDULE":"01 SEP 2026 – 31 MAR 2027, H24","COM_SE":"Tillfälligt farligt område ESD653 Norrköping upprättas för UAS som flyger utom synhåll (BVLOS).","COM_EN":"Temporary danger area ESD653 Norrköping established for UAS flying beyond visual line of sight (BVLOS).","URL":"https://aro.lfv.se/content/eaip/AIP%20AMDT%201-2026_2026_08_07/eSUP/AIP%20SUP%20141-2026_2026_09_01/ES-SUP-en-GB.html#SUP","COORD":"","LOW_UOM":"ft SFC","UP_UOM":"ft AMSL"}},{"type":"Feature","id":"SUP.43","geometry":{"type":"MultiPolygon","coordinates":[[[[12.24833333,59.17],[12.36944444,59.06027778],[12.38305556,58.91222222],[12.17944444,58.74638889],[11.87694444,58.81888889],[11.82861111,58.905],[12.04388889,59.16416667],[12.24833333,59.17]]]]},"geometry_name":"the_geom","properties":{"NAME":"BENGTSFORS","ID":"ESD881_2","DESIG":"ESD881","LOWER":"GND","UPPER":"1300","FROM":"2026-09-01T07:00Z","TO":"2027-12-31T16:00Z","SCHEDULE":"01 SEP 2026 – 31 DEC 2027, dagligen/daily 0700-1600 (0600-1500)","COM_SE":"Tillfälligt farligt område ESD881 Bengtsfors är upprättat för\nUAS som flyger utom synhåll (BVLOS).","COM_EN":"Temporary danger area ESD881 Bengtsfors is established for\nUAS flying beyond visual line of sight (BVLOS).","URL":"https://aro.lfv.se/content/eaip/AIP%20AMDT%201-2026_2026_08_07/eSUP/AIP%20SUP%20139-2026_2026_09_01/ES-SUP-sv-SE.html#SUP","COORD":"","LOW_UOM":"","UP_UOM":"ft AMSL"}},{"type":"Feature","id":"SUP.44","geometry":{"type":"MultiPolygon","coordinates":[[[[17.73138889,59.245],[17.78361111,59.24472222],[17.8325,59.22444444],[17.77638889,59.21277778],[17.765,59.21527778],[17.73722222,59.20916667],[17.68222222,59.20527778],[17.65916667,59.22305556],[17.64666667,59.22944444],[17.65388889,59.23527778],[17.66583333,59.2325],[17.68666667,59.23138889],[17.70666667,59.23416667],[17.72166667,59.24],[17.73138889,59.245]]]]},"geometry_name":"the_geom","properties":{"NAME":"SALEM","ID":"ESD822_2","DESIG":"ESD822","LOWER":"GND","UPPER":"700","FROM":"2026-09-01T09:00Z","TO":"2027-08-31T17:00Z","SCHEDULE":"01 SEP 2026 – 31 AUG 2027, MON – FRI 0900 – 1700 (0800 – 1600)","COM_SE":"Tillfälligt farligt område ESD822 Salem är upprättat för UAS som flyger utom synhåll (BVLOS) enligt särskilda tillstånd.","COM_EN":"Temporary danger area ESD822 Salem is established for UAS flying beyond visual line of sight (BVLOS) with special permission.","URL":"https://aro.lfv.se/content/eaip/AIP%20AMDT%201-2026_2026_08_07/eSUP/AIP%20SUP%20143-2026_2026_09_01/ES-SUP-en-GB.html#SUP","COORD":"","LOW_UOM":"","UP_UOM":"ft AMSL"}},{"type":"Feature","id":"SUP.45","geometry":{"type":"MultiPolygon","coordinates":[[[[14.44333333,63.09472222],[14.45833333,63.09472222],[14.57777778,63.01611111],[14.55444444,62.99305556],[14.4925,62.99305556],[14.51166667,63.01388889],[14.4575,63.05222222],[14.44333333,63.09472222]]]]},"geometry_name":"the_geom","properties":{"NAME":"ORRLANDA","ID":"ESD871_1","DESIG":"ESD871","LOWER":"GND","UPPER":"1600","FROM":"2026-09-01T07:00Z","TO":"2027-01-31T17:00Z","SCHEDULE":"01 SEP 2026 – 31 JAN 2027, MON – FRI 0700 – 1700 (0600 – 1600)","COM_SE":"Tillfälligt farligt område ESD871 Orrlanda upprättas för UAS som flyger utom synhåll (BVLOS) enligt särskilda tillstånd.","COM_EN":"Temporary danger area ESD871 Orrlanda established for UAS flying beyond visual line of sight (BVLOS) with special permission.","URL":"https://aro.lfv.se/content/eaip/AIP%20AMDT%201-2026_2026_08_07/eSUP/AIP%20SUP%20142-2026_2026_09_01/ES-SUP-en-GB.html#SUP","COORD":"","LOW_UOM":"","UP_UOM":"ft AMSL"}},{"type":"Feature","id":"SUP.46","geometry":{"type":"MultiPolygon","coordinates":[[[[14.39833333,58.65861111],[14.31805556,58.47833333],[14.28638889,58.29944444],[14.28194444,58.29083333],[14.28472222,58.28222222],[14.28833333,58.26972222],[14.16388889,58.24305556],[14.02972222,58.37777778],[14.10611111,58.42777778],[14.115,58.58555556],[14.39833333,58.65861111]]]]},"geometry_name":"the_geom","properties":{"NAME":"FAGERSANNA","ID":"ESR794_1","DESIG":"ESR794","LOWER":"SFC","UPPER":"4000","FROM":"2026-09-23T16:00Z","TO":"2026-09-24T12:00Z","SCHEDULE":"23 SEP 1600 – 24 SEP 1200","COM_SE":"Tillfälligt restriktionsområde ESR794 Fagersanna upprättas för militär flygverksamhet.","COM_EN":"Temporary restricted area ESR794 Fagersanna is established for military aviation operations.","URL":"https://aro.lfv.se/content/eaip/AIP%20AMDT%201-2026_2026_08_07/eSUP/AIP%20SUP%20165-2026_2026_09_23/ES-SUP-en-GB.html#SUP","COORD":"","LOW_UOM":"","UP_UOM":"ft AMSL"}},{"type":"Feature","id":"SUP.47","geometry":{"type":"MultiPolygon","coordinates":[[[[22.65805556,66.45944444],[22.95055556,66.4525],[23.06555556,66.32388889],[22.96,66.24694444],[22.80972222,66.24305556],[22.47805556,66.18277778],[22.44277778,66.33055556],[22.47805556,66.40027778],[22.65805556,66.45944444]]]]},"geometry_name":"the_geom","properties":{"NAME":"ÖVERKALIX","ID":"ESR552_1","DESIG":"ESR552","LOWER":"SFC","UPPER":"3500","FROM":"2026-09-24T06:00Z","TO":"2026-09-27T10:00Z","SCHEDULE":"24 SEP 0600 – 27 SEP 1000","COM_SE":"Tillfälliga restriktionsområden ESR550 Haparanda, ESR551 Övertorneå, ESR552 Överkalix och ESR553 Kalix upprättas för Militär flygverksamhet.","COM_EN":"Temporary restricted areas ESR550 Haparanda, ESR551 Övertorneå, ESR552 Överkalix and ESR553 Kalix are established for military aviation operations.","URL":"https://aro.lfv.se/content/eaip/AIP%20AMDT%201-2026_2026_08_07/eSUP/AIP%20SUP%20166-2026_2026_09_24/ES-SUP-en-GB.html#SUP","COORD":"","LOW_UOM":"","UP_UOM":"ft AMSL"}},{"type":"Feature","id":"SUP.48","geometry":{"type":"MultiPolygon","coordinates":[[[[22.88305556,66.11666667],[23.2325,66.09111111],[23.28638889,65.89305556],[23.17916667,65.86555556],[23.1075,65.83805556],[22.93472222,65.88833333],[22.81555556,65.98861111],[22.68944444,66.05944444],[22.70305556,66.10111111],[22.88305556,66.11666667]]]]},"geometry_name":"the_geom","properties":{"NAME":"KALIX","ID":"ESR553_1","DESIG":"ESR553","LOWER":"SFC","UPPER":"3500","FROM":"2026-09-24T06:00Z","TO":"2026-09-27T10:00Z","SCHEDULE":"24 SEP 0600 – 27 SEP 1000","COM_SE":"Tillfälliga restriktionsområden ESR550 Haparanda, ESR551 Övertorneå, ESR552 Överkalix och ESR553 Kalix upprättas för Militär flygverksamhet.","COM_EN":"Temporary restricted areas ESR550 Haparanda, ESR551 Övertorneå, ESR552 Överkalix and ESR553 Kalix are established for military aviation operations.","URL":"https://aro.lfv.se/content/eaip/AIP%20AMDT%201-2026_2026_08_07/eSUP/AIP%20SUP%20166-2026_2026_09_24/ES-SUP-en-GB.html#SUP","COORD":"","LOW_UOM":"","UP_UOM":"ft AMSL"}},{"type":"Feature","id":"SUP.49","geometry":{"type":"MultiPolygon","coordinates":[[[[18.19472222,64.60833333],[18.59361111,64.38194444],[18.09055556,64.435],[18.19472222,64.60833333]]]]},"geometry_name":"the_geom","properties":{"NAME":"VÄGSELE","ID":"ESR464_1","DESIG":"ESR464","LOWER":"GND","UPPER":"4500","FROM":"2026-09-25T07:00Z","TO":"2026-10-02T14:00Z","SCHEDULE":"25 SEP 0700 – 02 OCT 1400","COM_SE":"Tillfälliga restriktionsområden ESR460 Åmsele, ESR461 Arvträsk, ESR462 Lycksele, ESR463 Knaften och ESR464 Vägsele upprättas för militär flygverksamhet.","COM_EN":"Temporary restricted areas ESR460 Åmsele, ESR461 Arvträsk, ESR462 Lycksele, ESR463 Knaften and ESR464 Vägsele are established for military aviation operations.","URL":"https://aro.lfv.se/content/eaip/AIP%20AMDT%201-2026_2026_08_07/eSUP/AIP%20SUP%20161-2026_2026_09_25/ES-SUP-en-GB.html#SUP","COORD":"","LOW_UOM":"","UP_UOM":"ft AMSL"}},{"type":"Feature","id":"SUP.50","geometry":{"type":"MultiPolygon","coordinates":[[[[18.51777778,64.63277778],[18.55416667,64.51027778],[18.90277778,64.39944444],[18.59361111,64.38194444],[18.19472222,64.60833333],[18.51777778,64.63277778]]]]},"geometry_name":"the_geom","properties":{"NAME":"KNAFTEN","ID":"ESR463_1","DESIG":"ESR463","LOWER":"GND","UPPER":"2700","FROM":"2026-09-25T07:00Z","TO":"2026-10-02T14:00Z","SCHEDULE":"25 SEP 0700 – 02 OCT 1400","COM_SE":"Tillfälliga restriktionsområden ESR460 Åmsele, ESR461 Arvträsk, ESR462 Lycksele, ESR463 Knaften och ESR464 Vägsele upprättas för militär flygverksamhet.","COM_EN":"Temporary restricted areas ESR460 Åmsele, ESR461 Arvträsk, ESR462 Lycksele, ESR463 Knaften and ESR464 Vägsele are established for military aviation operations.","URL":"https://aro.lfv.se/content/eaip/AIP%20AMDT%201-2026_2026_08_07/eSUP/AIP%20SUP%20161-2026_2026_09_25/ES-SUP-en-GB.html#SUP","COORD":"","LOW_UOM":"","UP_UOM":"ft AMSL"}},{"type":"Feature","id":"SUP.51","geometry":{"type":"MultiPolygon","coordinates":[[[[18.58194444,64.65305556],[18.84916667,64.60472222],[18.99055556,64.4275],[18.90277778,64.39944444],[18.55416667,64.51027778],[18.51777778,64.63277778],[18.58194444,64.65305556]]]]},"geometry_name":"the_geom","properties":{"NAME":"LYCKSELE","ID":"ESR462_1","DESIG":"ESR462","LOWER":"GND","UPPER":"4500","FROM":"2026-09-25T07:00Z","TO":"2026-10-02T14:00Z","SCHEDULE":"25 SEP 0700 – 02 OCT 1400","COM_SE":"Tillfälliga restriktionsområden ESR460 Åmsele, ESR461 Arvträsk, ESR462 Lycksele, ESR463 Knaften och ESR464 Vägsele upprättas för militär flygverksamhet.","COM_EN":"Temporary restricted areas ESR460 Åmsele, ESR461 Arvträsk, ESR462 Lycksele, ESR463 Knaften and ESR464 Vägsele are established for military aviation operations.","URL":"https://aro.lfv.se/content/eaip/AIP%20AMDT%201-2026_2026_08_07/eSUP/AIP%20SUP%20161-2026_2026_09_25/ES-SUP-en-GB.html#SUP","COORD":"","LOW_UOM":"","UP_UOM":"ft AMSL"}},{"type":"Feature","id":"SUP.52","geometry":{"type":"MultiPolygon","coordinates":[[[[18.71666667,64.76777778],[19.19166667,64.49555556],[18.99055556,64.4275],[18.84916667,64.60472222],[18.58194444,64.65305556],[18.71666667,64.76777778]]]]},"geometry_name":"the_geom","properties":{"NAME":"ARVTRÄSK","ID":"ESR461_1","DESIG":"ESR461","LOWER":"GND","UPPER":"2700","FROM":"2026-09-25T07:00Z","TO":"2026-10-02T14:00Z","SCHEDULE":"25 SEP 0700 – 02 OCT 1400","COM_SE":"Tillfälliga restriktionsområden ESR460 Åmsele, ESR461 Arvträsk, ESR462 Lycksele, ESR463 Knaften och ESR464 Vägsele upprättas för militär flygverksamhet.","COM_EN":"Temporary restricted areas ESR460 Åmsele, ESR461 Arvträsk, ESR462 Lycksele, ESR463 Knaften and ESR464 Vägsele are established for military aviation operations.","URL":"https://aro.lfv.se/content/eaip/AIP%20AMDT%201-2026_2026_08_07/eSUP/AIP%20SUP%20161-2026_2026_09_25/ES-SUP-en-GB.html#SUP","COORD":"","LOW_UOM":"","UP_UOM":"ft AMSL"}},{"type":"Feature","id":"SUP.53","geometry":{"type":"MultiPolygon","coordinates":[[[[19.06722222,64.94416667],[19.54611111,64.71138889],[19.66916667,64.56444444],[19.44916667,64.45666667],[19.19166667,64.49555556],[18.71666667,64.76777778],[19.06722222,64.94416667]]]]},"geometry_name":"the_geom","properties":{"NAME":"ÅMSELE","ID":"ESR460_1","DESIG":"ESR460","LOWER":"GND","UPPER":"4500","FROM":"2026-09-25T07:00Z","TO":"2026-10-02T14:00Z","SCHEDULE":"25 SEP 0700 – 02 OCT 1400","COM_SE":"Tillfälliga restriktionsområden ESR460 Åmsele, ESR461 Arvträsk, ESR462 Lycksele, ESR463 Knaften och ESR464 Vägsele upprättas för militär flygverksamhet.","COM_EN":"Temporary restricted areas ESR460 Åmsele, ESR461 Arvträsk, ESR462 Lycksele, ESR463 Knaften and ESR464 Vägsele are established for military aviation operations.","URL":"https://aro.lfv.se/content/eaip/AIP%20AMDT%201-2026_2026_08_07/eSUP/AIP%20SUP%20161-2026_2026_09_25/ES-SUP-en-GB.html#SUP","COORD":"","LOW_UOM":"","UP_UOM":"ft AMSL"}},{"type":"Feature","id":"SUP.54","geometry":{"type":"MultiPolygon","coordinates":[[[[14.9375,63.17611111],[15.05361111,63.1425],[14.96611111,63.11805556],[14.83888889,63.1075],[14.82333333,63.11138889],[14.86416667,63.14555556],[14.9375,63.17611111]]]]},"geometry_name":"the_geom","properties":{"NAME":"LUNDKÄLEN","ID":"ESR724_1","DESIG":"ESR724","LOWER":"SFC","UPPER":"3000","FROM":"2026-09-28T12:00Z","TO":"2026-10-04T13:00Z","SCHEDULE":"28 SEP 1200 – 04 OCT 1300","COM_SE":"Tillfälligt restriktionsområde ESR724 Lundkälen upprättas för militär flygverksamhet.","COM_EN":"Temporary restricted area ESR724 Lundkälen is established for military aviation operations.","URL":"https://aro.lfv.se/content/eaip/AIP%20AMDT%201-2026_2026_08_07/eSUP/AIP%20SUP%20162-2026_2026_09_28/ES-SUP-en-GB.html#SUP","COORD":"","LOW_UOM":"","UP_UOM":"ft AMSL"}},{"type":"Feature","id":"SUP.55","geometry":{"type":"MultiPolygon","coordinates":[[[[16.67972222,58.29944444],[16.79833333,58.28833333],[16.85527778,58.23666667],[16.87277778,58.1675],[16.74805556,58.15944444],[16.61416667,58.26194444],[16.67972222,58.29944444]]]]},"geometry_name":"the_geom","properties":{"NAME":"STRANDVIK","ID":"ESR513_1","DESIG":"ESR513","LOWER":"SFC","UPPER":"1600","FROM":"2026-09-24T10:00Z","TO":"2026-10-02T10:00Z","SCHEDULE":"24 SEP 1000 – 02 OCT 1000","COM_SE":"Tillfälliga restriktionsområden ESR510 Tysktorpet, ESR511 Mixdala, ESR512 Börrum och ESR513 Strandvik upprättas för militär flygverksamhet.","COM_EN":"Temporary restricted areas ESR510 Tysktorpet, ESR511 Mixdala, ESR512 Börrum and ESR513 Strandvik are established for military aviation operations.","URL":"https://aro.lfv.se/content/eaip/AIP%20AMDT%201-2026_2026_08_07/eSUP/AIP%20SUP%20164-2026_2026_09_24/ES-SUP-en-GB.html#SUP","COORD":"","LOW_UOM":"","UP_UOM":"ft AMSL"}},{"type":"Feature","id":"SUP.56","geometry":{"type":"MultiPolygon","coordinates":[[[[16.57638889,58.35805556],[16.61583333,58.3575],[16.63694444,58.34722222],[16.63333333,58.32555556],[16.62388889,58.31222222],[16.61388889,58.30944444],[16.5875,58.30555556],[16.56861111,58.31805556],[16.57638889,58.35805556]]]]},"geometry_name":"the_geom","properties":{"NAME":"BÖRRUM","ID":"ESR512_1","DESIG":"ESR512","LOWER":"SFC","UPPER":"1600","FROM":"2026-09-24T10:00Z","TO":"2026-10-02T10:00Z","SCHEDULE":"24 SEP 1000 – 02 OCT 1000","COM_SE":"Tillfälliga restriktionsområden ESR510 Tysktorpet, ESR511 Mixdala, ESR512 Börrum och ESR513 Strandvik upprättas för militär flygverksamhet.","COM_EN":"Temporary restricted areas ESR510 Tysktorpet, ESR511 Mixdala, ESR512 Börrum and ESR513 Strandvik are established for military aviation operations.","URL":"https://aro.lfv.se/content/eaip/AIP%20AMDT%201-2026_2026_08_07/eSUP/AIP%20SUP%20164-2026_2026_09_24/ES-SUP-en-GB.html#SUP","COORD":"","LOW_UOM":"","UP_UOM":"ft AMSL"}},{"type":"Feature","id":"SUP.57","geometry":{"type":"MultiPolygon","coordinates":[[[[16.33555556,58.3625],[16.37277778,58.34305556],[16.35833333,58.30944444],[16.27861111,58.31944444],[16.27888889,58.32111111],[16.28666667,58.35583333],[16.33555556,58.3625]]]]},"geometry_name":"the_geom","properties":{"NAME":"MIXDALA","ID":"ESR511_1","DESIG":"ESR511","LOWER":"SFC","UPPER":"1600","FROM":"2026-09-24T10:00Z","TO":"2026-10-02T10:00Z","SCHEDULE":"24 SEP 1000 – 02 OCT 1000","COM_SE":"Tillfälliga restriktionsområden ESR510 Tysktorpet, ESR511 Mixdala, ESR512 Börrum och ESR513 Strandvik upprättas för militär flygverksamhet.","COM_EN":"Temporary restricted areas ESR510 Tysktorpet, ESR511 Mixdala, ESR512 Börrum and ESR513 Strandvik are established for military aviation operations.","URL":"https://aro.lfv.se/content/eaip/AIP%20AMDT%201-2026_2026_08_07/eSUP/AIP%20SUP%20164-2026_2026_09_24/ES-SUP-en-GB.html#SUP","COORD":"","LOW_UOM":"","UP_UOM":"ft AMSL"}},{"type":"Feature","id":"SUP.58","geometry":{"type":"MultiPolygon","coordinates":[[[[16.28916667,58.72305556],[16.33111111,58.71333333],[16.33305556,58.68666667],[16.265,58.68611111],[16.26166667,58.71361111],[16.28916667,58.72305556]]]]},"geometry_name":"the_geom","properties":{"NAME":"TYSKTORPET","ID":"ESR510_1","DESIG":"ESR510","LOWER":"SFC","UPPER":"1600","FROM":"2026-09-24T10:00Z","TO":"2026-10-02T10:00Z","SCHEDULE":"24 SEP 1000 – 02 OCT 1000","COM_SE":"Tillfälliga restriktionsområden ESR510 Tysktorpet, ESR511 Mixdala, ESR512 Börrum och ESR513 Strandvik upprättas för militär flygverksamhet.","COM_EN":"Temporary restricted areas ESR510 Tysktorpet, ESR511 Mixdala, ESR512 Börrum and ESR513 Strandvik are established for military aviation operations.","URL":"https://aro.lfv.se/content/eaip/AIP%20AMDT%201-2026_2026_08_07/eSUP/AIP%20SUP%20164-2026_2026_09_24/ES-SUP-en-GB.html#SUP","COORD":"","LOW_UOM":"","UP_UOM":"ft AMSL"}},{"type":"Feature","id":"SUP.59","geometry":{"type":"MultiPolygon","coordinates":[[[[14.37444444,55.93972222],[14.19555556,55.76222222],[14.165,55.76916667],[14.13861111,55.75388889],[14.15527778,55.72194444],[14.19611111,55.72361111],[14.46472222,55.56861111],[14.43888889,55.54416667],[13.99472222,55.69],[14.02416667,55.81138889],[14.16555556,55.82666667],[14.27833333,55.93666667],[14.37444444,55.93972222]]]]},"geometry_name":"the_geom","properties":{"NAME":"BRÖSARP","ID":"ESR514_1","DESIG":"ESR514","LOWER":"SFC","UPPER":"FL320","FROM":"2026-09-22T05:00Z","TO":"2026-09-25T13:00Z","SCHEDULE":"22 – 25 SEP 0500 – 1300","COM_SE":"ESR34 Ravlunda utökas tillfälligt i höjd samt tillfälligt restriktionsområde ESR514 Brösarp upprättas för militär verksamhet inklusive flygverksamhet.","COM_EN":"ESR34 Ravlunda is temporarily raised and temporary restricted area ESR514 Brösarp is established for military operations including flight operations.","URL":"https://aro.lfv.se/content/eaip/AIP%20AMDT%201-2026_2026_08_07/eSUP/AIP%20SUP%20169-2026_2026_09_22/ES-SUP-en-GB.html#SUP","COORD":"","LOW_UOM":"","UP_UOM":""}},{"type":"Feature","id":"SUP.60","geometry":{"type":"MultiPolygon","coordinates":[[[[14.374444,55.939722],[14.386496,55.935644],[14.398874,55.931125],[14.410961,55.926366],[14.422743,55.921372],[14.434205,55.916151],[14.445334,55.910707],[14.456115,55.905048],[14.466535,55.899181],[14.476583,55.893113],[14.486245,55.886851],[14.495509,55.880402],[14.504366,55.873776],[14.512803,55.866979],[14.520811,55.86002],[14.52838,55.852908],[14.535501,55.845651],[14.542165,55.838258],[14.548364,55.830737],[14.554091,55.8231],[14.559339,55.815353],[14.564101,55.807508],[14.568372,55.799573],[14.572147,55.791558],[14.575422,55.783474],[14.578192,55.775329],[14.580455,55.767133],[14.582207,55.758898],[14.583447,55.750632],[14.584174,55.742346],[14.584386,55.73405],[14.584084,55.725754],[14.583268,55.717468],[14.58194,55.709202],[14.5801,55.700966],[14.577752,55.692771],[14.574899,55.684626],[14.571543,55.676541],[14.56769,55.668526],[14.563344,55.660592],[14.558511,55.652746],[14.553197,55.645],[14.547407,55.637362],[14.541151,55.629842],[14.534434,55.622449],[14.527265,55.615192],[14.519654,55.60808],[14.51161,55.601121],[14.503142,55.594324],[14.494261,55.587697],[14.484977,55.581249],[14.475303,55.574987],[14.464722,55.568611],[14.196111,55.723611],[14.155278,55.721944],[14.138611,55.753889],[14.165,55.769167],[14.195556,55.762222],[14.374444,55.939722]]]]},"geometry_name":"the_geom","properties":{"NAME":"RAVLUNDA","ID":"ESR34_1","DESIG":"ESR34","LOWER":"SFC","UPPER":"FL320","FROM":"2026-09-22T05:00Z","TO":"2026-09-25T13:00Z","SCHEDULE":"22 – 25 SEP 0500 – 1300","COM_SE":"ESR34 Ravlunda utökas tillfälligt i höjd samt tillfälligt restriktionsområde ESR514 Brösarp upprättas för militär verksamhet inklusive flygverksamhet.","COM_EN":"ESR34 Ravlunda is temporarily raised and temporary restricted area ESR514 Brösarp is established for military operations including flight operations.","URL":"https://aro.lfv.se/content/eaip/AIP%20AMDT%201-2026_2026_08_07/eSUP/AIP%20SUP%20169-2026_2026_09_22/ES-SUP-en-GB.html#SUP","COORD":"","LOW_UOM":"","UP_UOM":""}},{"type":"Feature","id":"SUP.61","geometry":{"type":"MultiPolygon","coordinates":[[[[11.51833333,58.59083333],[11.72944444,58.45805556],[11.13805556,58.30805556],[11.00222222,58.52277778],[11.15083333,58.53916667],[11.51833333,58.59083333]]]]},"geometry_name":"the_geom","properties":{"NAME":"KUNGSHAMN","ID":"ESR501_1","DESIG":"ESR501","LOWER":"SFC","UPPER":"4500","FROM":"2026-10-05T08:00Z","TO":"2026-10-15T06:00Z","SCHEDULE":"05 OCT 0800 – 15 OCT 0600","COM_SE":"Tillfälliga restriktionsområden ESR501 Kungshamn, ESR502 Kyrkeby och ESR588 Gunnarby upprättas för militär flygverksamhet.\nInom områdena gäller förbud mot all luftfart som inte ingår i verksamheten.","COM_EN":"Temporary restricted areas ESR501 Kungshamn, ESR502 Kyrkeby and ESR588 Gunnarby established for military aviation operations.\nFlight within the areas prohibited for all non-participating aircraft.","URL":"https://aro.lfv.se/content/eaip/AIP%20AMDT%201-2026_2026_08_07/eSUP/AIP%20SUP%20172-2026_2026_10_05/ES-SUP-en-GB.html#SUP","COORD":"","LOW_UOM":"","UP_UOM":"ft AMSL"}},{"type":"Feature","id":"SUP.62","geometry":{"type":"MultiPolygon","coordinates":[[[[11.72944444,58.45805556],[11.775,58.38638889],[11.73611111,58.35888889],[11.80444444,58.28611111],[11.32361111,58.16833333],[11.22277778,58.22861111],[11.13805556,58.30805556],[11.72944444,58.45805556]]]]},"geometry_name":"the_geom","properties":{"NAME":"KYRKEBY","ID":"ESR502_1","DESIG":"ESR502","LOWER":"SFC","UPPER":"4500","FROM":"2026-10-05T08:00Z","TO":"2026-10-15T06:00Z","SCHEDULE":"05 OCT 0800 – 15 OCT 0600","COM_SE":"Tillfälliga restriktionsområden ESR501 Kungshamn, ESR502 Kyrkeby och ESR588 Gunnarby upprättas för militär flygverksamhet.\nInom områdena gäller förbud mot all luftfart som inte ingår i verksamheten.","COM_EN":"Temporary restricted areas ESR501 Kungshamn, ESR502 Kyrkeby and ESR588 Gunnarby established for military aviation operations.\nFlight within the areas prohibited for all non-participating aircraft.","URL":"https://aro.lfv.se/content/eaip/AIP%20AMDT%201-2026_2026_08_07/eSUP/AIP%20SUP%20172-2026_2026_10_05/ES-SUP-en-GB.html#SUP","COORD":"","LOW_UOM":"","UP_UOM":"ft AMSL"}},{"type":"Feature","id":"SUP.63","geometry":{"type":"MultiPolygon","coordinates":[[[[11.73245412,58.39277778],[11.73199555,58.3878857],[11.73062427,58.38304074],[11.72835347,58.37828955],[11.72520503,58.3736779],[11.72120926,58.36925018],[11.71640465,58.36504905],[11.71083748,58.36111496],[11.70456134,58.3574858],[11.6976367,58.35419652],[11.69013023,58.3512788],[11.68211423,58.34876074],[11.67366589,58.34666658],[11.66486658,58.34501651],[11.65580104,58.34382639],[11.64655658,58.34310771],[11.63722222,58.34286738],[11.62788786,58.34310771],[11.6186434,58.34382639],[11.60957786,58.34501651],[11.60077855,58.34666658],[11.59233022,58.34876074],[11.58431421,58.3512788],[11.57680774,58.35419652],[11.5698831,58.3574858],[11.56360697,58.36111496],[11.55803979,58.36504905],[11.55323518,58.36925018],[11.54923942,58.3736779],[11.54609098,58.37828955],[11.54382018,58.38304074],[11.54244889,58.3878857],[11.54199032,58.39277778],[11.54244889,58.39766985],[11.54382018,58.40251481],[11.54609098,58.407266],[11.54923942,58.41187766],[11.55323518,58.41630538],[11.55803979,58.42050651],[11.56360697,58.4244406],[11.5698831,58.42806976],[11.57680774,58.43135904],[11.58431421,58.43427676],[11.59233022,58.43679482],[11.60077855,58.43888897],[11.60957786,58.44053905],[11.6186434,58.44172916],[11.62788786,58.44244784],[11.63722222,58.44268817],[11.64655658,58.44244784],[11.65580104,58.44172916],[11.66486658,58.44053905],[11.67366589,58.43888897],[11.68211423,58.43679482],[11.69013023,58.43427676],[11.6976367,58.43135904],[11.70456134,58.42806976],[11.71083748,58.4244406],[11.71640465,58.42050651],[11.72120926,58.41630538],[11.72520503,58.41187766],[11.72835347,58.407266],[11.73062427,58.40251481],[11.73199555,58.39766985],[11.73245412,58.39277778]]]]},"geometry_name":"the_geom","properties":{"NAME":"GUNNARBY","ID":"ESR588_1","DESIG":"ESR588","LOWER":"SFC","UPPER":"2200","FROM":"2026-10-05T08:00Z","TO":"2026-10-09T23:59Z","SCHEDULE":"05 OCT 0800 – 09 OCT 2359","COM_SE":"Tillfälliga restriktionsområden ESR501 Kungshamn, ESR502 Kyrkeby och ESR588 Gunnarby upprättas för militär flygverksamhet.\nInom områdena gäller förbud mot all luftfart som inte ingår i verksamheten.","COM_EN":"Temporary restricted areas ESR501 Kungshamn, ESR502 Kyrkeby and ESR588 Gunnarby established for military aviation operations.\nFlight within the areas prohibited for all non-participating aircraft.","URL":"https://aro.lfv.se/content/eaip/AIP%20AMDT%201-2026_2026_08_07/eSUP/AIP%20SUP%20172-2026_2026_10_05/ES-SUP-en-GB.html#SUP","COORD":"A circle with radius 3 NM centered on 582334N 0113814E","LOW_UOM":"","UP_UOM":"ft AMSL"}},{"type":"Feature","id":"SUP.64","geometry":{"type":"MultiPolygon","coordinates":[[[[15.53672713,57.24361111],[15.53625333,57.2383929],[15.53483652,57.23322494],[15.53249032,57.22815701],[15.52923734,57.2232379],[15.52510891,57.21851501],[15.52014478,57.2140338],[15.51439276,57.20983744],[15.50790825,57.20596633],[15.50075369,57.20245777],[15.492998,57.19934553],[15.48471585,57.1966596],[15.47598701,57.19442584],[15.46689554,57.19266575],[15.45752901,57.1913963],[15.44797761,57.19062971],[15.43833333,57.19037335],[15.42868906,57.19062971],[15.41913766,57.1913963],[15.40977112,57.19266575],[15.40067966,57.19442584],[15.39195082,57.1966596],[15.38366867,57.19934553],[15.37591297,57.20245777],[15.36875842,57.20596633],[15.3622739,57.20983744],[15.35652188,57.2140338],[15.35155776,57.21851501],[15.34742932,57.2232379],[15.34417634,57.22815701],[15.34183015,57.23322494],[15.34041333,57.2383929],[15.33993954,57.24361111],[15.34041333,57.24882932],[15.34183015,57.25399728],[15.34417634,57.25906522],[15.34742932,57.26398432],[15.35155776,57.26870722],[15.35652188,57.27318842],[15.3622739,57.27738479],[15.36875842,57.28125589],[15.37591297,57.28476445],[15.38366867,57.28787669],[15.39195082,57.29056262],[15.40067966,57.29279639],[15.40977112,57.29455647],[15.41913766,57.29582592],[15.42868906,57.29659251],[15.43833333,57.29684887],[15.44797761,57.29659251],[15.45752901,57.29582592],[15.46689554,57.29455647],[15.47598701,57.29279639],[15.48471585,57.29056262],[15.492998,57.28787669],[15.50075369,57.28476445],[15.50790825,57.28125589],[15.51439276,57.27738479],[15.52014478,57.27318842],[15.52510891,57.26870722],[15.52923734,57.26398432],[15.53249032,57.25906522],[15.53483652,57.25399728],[15.53625333,57.24882932],[15.53672713,57.24361111]]]]},"geometry_name":"the_geom","properties":{"NAME":"ÅSEDA","ID":"ESR421_2","DESIG":"ESR421","LOWER":"SFC","UPPER":"2200","FROM":"2026-10-03T07:00Z","TO":"2026-10-10T20:00Z","SCHEDULE":"03 OCT 0700 – 10 OCT 2000","COM_SE":"Tillfälliga restriktionsområden ESR741 Marieholm, ESR742 Rusken, ESR419 Malmbäck, ESR420 Vetlanda och ESR421 Åseda upprättas för militär flygverksamhet.\nInom områdena gäller förbud mot all luftfart som inte ingår i verksamheten.","COM_EN":"Temporary restricted areas ESR741 Marieholm, ESR742 Rusken, ESR419 Malmbäck, ESR420 Vetlanda and ESR421 Åseda established for military aviation operations.\nFlight within the areas prohibited for all non-participating aircraft.","URL":"https://aro.lfv.se/content/eaip/AIP%20AMDT%201-2026_2026_08_07/eSUP/AIP%20SUP%20171-2026_2026_10_03/ES-SUP-en-GB.html#SUP","COORD":"A circle with radius 3.2 NM centered on 571437N 0152618E","LOW_UOM":"","UP_UOM":"ft AMSL"}},{"type":"Feature","id":"SUP.65","geometry":{"type":"MultiPolygon","coordinates":[[[[13.84805556,57.54416667],[14.10277778,57.51138889],[14.08805556,57.48611111],[14.08861111,57.34944444],[14.08027778,57.28305556],[14.03972222,57.20444444],[13.69444444,57.23083333],[13.84805556,57.54416667]]]]},"geometry_name":"the_geom","properties":{"NAME":"MARIEHOLM","ID":"ESR741_2","DESIG":"ESR741","LOWER":"SFC","UPPER":"2200","FROM":"2026-10-03T07:00Z","TO":"2026-10-10T20:00Z","SCHEDULE":"03 OCT 0700 – 10 OCT 2000","COM_SE":"Tillfälliga restriktionsområden ESR741 Marieholm, ESR742 Rusken, ESR419 Malmbäck, ESR420 Vetlanda och ESR421 Åseda upprättas för militär flygverksamhet.\nInom områdena gäller förbud mot all luftfart som inte ingår i verksamheten.","COM_EN":"Temporary restricted areas ESR741 Marieholm, ESR742 Rusken, ESR419 Malmbäck, ESR420 Vetlanda and ESR421 Åseda established for military aviation operations.\nFlight within the areas prohibited for all non-participating aircraft.","URL":"https://aro.lfv.se/content/eaip/AIP%20AMDT%201-2026_2026_08_07/eSUP/AIP%20SUP%20171-2026_2026_10_03/ES-SUP-en-GB.html#SUP","COORD":"","LOW_UOM":"","UP_UOM":"ft AMSL"}},{"type":"Feature","id":"SUP.66","geometry":{"type":"MultiPolygon","coordinates":[[[[14.23861111,57.49111111],[14.49972222,57.40555556],[14.34638889,57.18638889],[14.03972222,57.20444444],[14.08027778,57.28305556],[14.15527778,57.28305556],[14.18027778,57.35777778],[14.23861111,57.49111111]]]]},"geometry_name":"the_geom","properties":{"NAME":"RUSKEN","ID":"ESR742_2","DESIG":"ESR742","LOWER":"SFC","UPPER":"2200","FROM":"2026-10-03T07:00Z","TO":"2026-10-10T20:00Z","SCHEDULE":"03 OCT 0700 – 10 OCT 2000","COM_SE":"Tillfälliga restriktionsområden ESR741 Marieholm, ESR742 Rusken, ESR419 Malmbäck, ESR420 Vetlanda och ESR421 Åseda upprättas för militär flygverksamhet.\nInom områdena gäller förbud mot all luftfart som inte ingår i verksamheten.","COM_EN":"Temporary restricted areas ESR741 Marieholm, ESR742 Rusken, ESR419 Malmbäck, ESR420 Vetlanda and ESR421 Åseda established for military aviation operations.\nFlight within the areas prohibited for all non-participating aircraft.","URL":"https://aro.lfv.se/content/eaip/AIP%20AMDT%201-2026_2026_08_07/eSUP/AIP%20SUP%20171-2026_2026_10_03/ES-SUP-en-GB.html#SUP","COORD":"","LOW_UOM":"","UP_UOM":"ft AMSL"}},{"type":"Feature","id":"SUP.67","geometry":{"type":"MultiPolygon","coordinates":[[[[14.28444444,57.66777778],[14.65444444,57.50361111],[14.56472222,57.42805556],[14.15916667,57.59333333],[14.28444444,57.66777778]]]]},"geometry_name":"the_geom","properties":{"NAME":"MALMBÄCK","ID":"ESR419_2","DESIG":"ESR419","LOWER":"SFC","UPPER":"2200","FROM":"2026-10-03T07:00Z","TO":"2026-10-10T20:00Z","SCHEDULE":"03 OCT 0700 – 10 OCT 2000","COM_SE":"Tillfälliga restriktionsområden ESR741 Marieholm, ESR742 Rusken, ESR419 Malmbäck, ESR420 Vetlanda och ESR421 Åseda upprättas för militär flygverksamhet.\nInom områdena gäller förbud mot all luftfart som inte ingår i verksamheten.","COM_EN":"Temporary restricted areas ESR741 Marieholm, ESR742 Rusken, ESR419 Malmbäck, ESR420 Vetlanda and ESR421 Åseda established for military aviation operations.\nFlight within the areas prohibited for all non-participating aircraft.","URL":"https://aro.lfv.se/content/eaip/AIP%20AMDT%201-2026_2026_08_07/eSUP/AIP%20SUP%20171-2026_2026_10_03/ES-SUP-en-GB.html#SUP","COORD":"","LOW_UOM":"","UP_UOM":"ft AMSL"}},{"type":"Feature","id":"SUP.68","geometry":{"type":"MultiPolygon","coordinates":[[[[15.21305556,57.62777778],[15.46944444,57.44833333],[14.93666667,57.39027778],[14.77722222,57.50666667],[15.21305556,57.62777778]]]]},"geometry_name":"the_geom","properties":{"NAME":"VETLANDA","ID":"ESR420_2","DESIG":"ESR420","LOWER":"SFC","UPPER":"2200","FROM":"2026-10-03T07:00Z","TO":"2026-10-10T20:00Z","SCHEDULE":"03 OCT 0700 – 10 OCT 2000","COM_SE":"Tillfälliga restriktionsområden ESR741 Marieholm, ESR742 Rusken, ESR419 Malmbäck, ESR420 Vetlanda och ESR421 Åseda upprättas för militär flygverksamhet.\nInom områdena gäller förbud mot all luftfart som inte ingår i verksamheten.","COM_EN":"Temporary restricted areas ESR741 Marieholm, ESR742 Rusken, ESR419 Malmbäck, ESR420 Vetlanda and ESR421 Åseda established for military aviation operations.\nFlight within the areas prohibited for all non-participating aircraft.","URL":"https://aro.lfv.se/content/eaip/AIP%20AMDT%201-2026_2026_08_07/eSUP/AIP%20SUP%20171-2026_2026_10_03/ES-SUP-en-GB.html#SUP","COORD":"","LOW_UOM":"","UP_UOM":"ft AMSL"}},{"type":"Feature","id":"SUP.69","geometry":{"type":"MultiPolygon","coordinates":[[[[18.62805556,59.26083333],[18.98166667,59.19722222],[18.79111111,59.08722222],[18.45472222,59.19611111],[18.62805556,59.26083333]]]]},"geometry_name":"the_geom","properties":{"NAME":"NÄMDÖ","ID":"ESR790_1","DESIG":"ESR790","LOWER":"SFC","UPPER":"4000","FROM":"2026-10-04T08:00Z","TO":"2026-10-13T20:00Z","SCHEDULE":"04 OCT 0800 – 13 OCT 2000","COM_SE":"Tillfälliga restriktionsområden ESR789 Ornö, ESR790 Nämdö, ESR791 Möja, ESR792 Blidö, ESR734 Södersvik, ESR453 Östhammar och ESR455 Roten South upprättas för militär flygverksamhet.","COM_EN":"Temporary restricted areas ESR789 Ornö, ESR790 Nämdö, ESR791 Möja, ESR792 Blidö, ESR734 Södersvik, ESR453 Östhammar and ESR455 Roten South established for military aviation operations.","URL":"https://aro.lfv.se/content/eaip/AIP%20AMDT%201-2026_2026_08_07/eSUP/AIP%20SUP%20170-2026_2026_10_04/ES-SUP-en-GB.html#SUP","COORD":"","LOW_UOM":"","UP_UOM":"ft AMSL"}},{"type":"Feature","id":"SUP.70","geometry":{"type":"MultiPolygon","coordinates":[[[[18.45472222,59.19611111],[18.79111111,59.08722222],[18.61222222,58.98972222],[18.48805556,59.01611111],[18.31111111,59.14222222],[18.45472222,59.19611111]]]]},"geometry_name":"the_geom","properties":{"NAME":"ORNÖ","ID":"ESR789_1","DESIG":"ESR789","LOWER":"SFC","UPPER":"4000","FROM":"2026-10-04T06:00Z","TO":"2026-10-09T20:00Z","SCHEDULE":"04 OCT 0600 – 09 OCT 2000","COM_SE":"Tillfälliga restriktionsområden ESR789 Ornö, ESR790 Nämdö, ESR791 Möja, ESR792 Blidö, ESR734 Södersvik, ESR453 Östhammar och ESR455 Roten South upprättas för militär flygverksamhet.","COM_EN":"Temporary restricted areas ESR789 Ornö, ESR790 Nämdö, ESR791 Möja, ESR792 Blidö, ESR734 Södersvik, ESR453 Östhammar and ESR455 Roten South established for military aviation operations.","URL":"https://aro.lfv.se/content/eaip/AIP%20AMDT%201-2026_2026_08_07/eSUP/AIP%20SUP%20170-2026_2026_10_04/ES-SUP-en-GB.html#SUP","COORD":"","LOW_UOM":"","UP_UOM":"ft AMSL"}},{"type":"Feature","id":"SUP.71","geometry":{"type":"MultiPolygon","coordinates":[[[[18.8425,59.49694444],[19.1475,59.36722222],[18.98166667,59.19722222],[18.62805556,59.26083333],[18.58305556,59.35333333],[18.44583333,59.35583333],[18.39638889,59.43611111],[18.41722222,59.47222222],[18.8425,59.49694444]]]]},"geometry_name":"the_geom","properties":{"NAME":"MÖJA","ID":"ESR791_1","DESIG":"ESR791","LOWER":"SFC","UPPER":"4000","FROM":"2026-10-04T08:00Z","TO":"2026-10-13T20:00Z","SCHEDULE":"04 OCT 0800 – 13 OCT 2000","COM_SE":"Tillfälliga restriktionsområden ESR789 Ornö, ESR790 Nämdö, ESR791 Möja, ESR792 Blidö, ESR734 Södersvik, ESR453 Östhammar och ESR455 Roten South upprättas för militär flygverksamhet.","COM_EN":"Temporary restricted areas ESR789 Ornö, ESR790 Nämdö, ESR791 Möja, ESR792 Blidö, ESR734 Södersvik, ESR453 Östhammar and ESR455 Roten South established for military aviation operations.","URL":"https://aro.lfv.se/content/eaip/AIP%20AMDT%201-2026_2026_08_07/eSUP/AIP%20SUP%20170-2026_2026_10_04/ES-SUP-en-GB.html#SUP","COORD":"","LOW_UOM":"","UP_UOM":"ft AMSL"}},{"type":"Feature","id":"SUP.72","geometry":{"type":"MultiPolygon","coordinates":[[[[18.73611111,59.68638889],[19.17472222,59.60277778],[19.29888889,59.49527778],[19.1475,59.36722222],[18.84222222,59.49694444],[18.41722222,59.47222222],[18.46472222,59.51694444],[18.73611111,59.68638889]]]]},"geometry_name":"the_geom","properties":{"NAME":"BLIDÖ","ID":"ESR792_1","DESIG":"ESR792","LOWER":"SFC","UPPER":"4000","FROM":"2026-10-04T08:00Z","TO":"2026-10-13T20:00Z","SCHEDULE":"04 OCT 0800 – 13 OCT 2000","COM_SE":"Tillfälliga restriktionsområden ESR789 Ornö, ESR790 Nämdö, ESR791 Möja, ESR792 Blidö, ESR734 Södersvik, ESR453 Östhammar och ESR455 Roten South upprättas för militär flygverksamhet.","COM_EN":"Temporary restricted areas ESR789 Ornö, ESR790 Nämdö, ESR791 Möja, ESR792 Blidö, ESR734 Södersvik, ESR453 Östhammar and ESR455 Roten South established for military aviation operations.","URL":"https://aro.lfv.se/content/eaip/AIP%20AMDT%201-2026_2026_08_07/eSUP/AIP%20SUP%20170-2026_2026_10_04/ES-SUP-en-GB.html#SUP","COORD":"","LOW_UOM":"","UP_UOM":"ft AMSL"}},{"type":"Feature","id":"SUP.73","geometry":{"type":"MultiPolygon","coordinates":[[[[18.79722222,59.86611111],[19.22972222,59.84388889],[19.40166667,59.84527778],[19.43833333,59.84333333],[19.46972222,59.83944444],[19.50277778,59.83111111],[19.52722222,59.82277778],[19.56138889,59.805],[19.58833333,59.77333333],[19.60638889,59.72777778],[19.60388889,59.70305556],[19.59138889,59.68138889],[19.29888889,59.49527778],[19.17472222,59.60277778],[18.7375,59.68694444],[18.78138889,59.69833333],[18.81027778,59.71277778],[18.83305556,59.72277778],[18.84,59.74527778],[18.84444444,59.78111111],[18.83472222,59.80944444],[18.79722222,59.86611111]]]]},"geometry_name":"the_geom","properties":{"NAME":"SÖDERSVIK","ID":"ESR734_1","DESIG":"ESR734","LOWER":"SFC","UPPER":"4000","FROM":"2026-10-04T08:00Z","TO":"2026-10-13T20:00Z","SCHEDULE":"04 OCT 0800 – 13 OCT 2000","COM_SE":"Tillfälliga restriktionsområden ESR789 Ornö, ESR790 Nämdö, ESR791 Möja, ESR792 Blidö, ESR734 Södersvik, ESR453 Östhammar och ESR455 Roten South upprättas för militär flygverksamhet.","COM_EN":"Temporary restricted areas ESR789 Ornö, ESR790 Nämdö, ESR791 Möja, ESR792 Blidö, ESR734 Södersvik, ESR453 Östhammar and ESR455 Roten South established for military aviation operations.","URL":"https://aro.lfv.se/content/eaip/AIP%20AMDT%201-2026_2026_08_07/eSUP/AIP%20SUP%20170-2026_2026_10_04/ES-SUP-en-GB.html#SUP","COORD":"","LOW_UOM":"","UP_UOM":"ft AMSL"}},{"type":"Feature","id":"SUP.74","geometry":{"type":"MultiPolygon","coordinates":[[[[18.60472222,60.36583333],[18.62111111,60.1825],[18.64638889,60.06583333],[18.57583333,60.045],[18.28777778,60.31666667],[18.60472222,60.36583333]]]]},"geometry_name":"the_geom","properties":{"NAME":"ÖSTHAMMAR","ID":"ESR453_1","DESIG":"ESR453","LOWER":"SFC","UPPER":"4000","FROM":"2026-10-04T08:00Z","TO":"2026-10-13T20:00Z","SCHEDULE":"04 OCT 0800 – 13 OCT 2000","COM_SE":"Tillfälliga restriktionsområden ESR789 Ornö, ESR790 Nämdö, ESR791 Möja, ESR792 Blidö, ESR734 Södersvik, ESR453 Östhammar och ESR455 Roten South upprättas för militär flygverksamhet.","COM_EN":"Temporary restricted areas ESR789 Ornö, ESR790 Nämdö, ESR791 Möja, ESR792 Blidö, ESR734 Södersvik, ESR453 Östhammar and ESR455 Roten South established for military aviation operations.","URL":"https://aro.lfv.se/content/eaip/AIP%20AMDT%201-2026_2026_08_07/eSUP/AIP%20SUP%20170-2026_2026_10_04/ES-SUP-en-GB.html#SUP","COORD":"","LOW_UOM":"","UP_UOM":"ft AMSL"}},{"type":"Feature","id":"SUP.75","geometry":{"type":"MultiPolygon","coordinates":[[[[18.60472222,60.36583333],[19.0525,60.36583333],[19.04611111,60.12361111],[19.02444444,60.12777778],[19.01805556,60.12888889],[19.00916667,60.13027778],[19.0075,60.13055556],[19.00416667,60.13111111],[18.99638889,60.13222222],[18.96944444,60.13555556],[18.95194444,60.13694444],[18.94027778,60.13777778],[18.91944444,60.13861111],[18.89361111,60.13916667],[18.86666667,60.13888889],[18.84416667,60.13777778],[18.72972222,60.21583333],[18.64638889,60.06583333],[18.62166667,60.18166667],[18.62138889,60.1825],[18.60472222,60.36583333]]]]},"geometry_name":"the_geom","properties":{"NAME":"ROTEN SOUTH","ID":"ESR455_1","DESIG":"ESR455","LOWER":"SFC","UPPER":"4000","FROM":"2026-10-04T08:00Z","TO":"2026-10-13T20:00Z","SCHEDULE":"04 OCT 0800 – 13 OCT 2000","COM_SE":"Tillfälliga restriktionsområden ESR789 Ornö, ESR790 Nämdö, ESR791 Möja, ESR792 Blidö, ESR734 Södersvik, ESR453 Östhammar och ESR455 Roten South upprättas för militär flygverksamhet.","COM_EN":"Temporary restricted areas ESR789 Ornö, ESR790 Nämdö, ESR791 Möja, ESR792 Blidö, ESR734 Södersvik, ESR453 Östhammar and ESR455 Roten South established for military aviation operations.","URL":"https://aro.lfv.se/content/eaip/AIP%20AMDT%201-2026_2026_08_07/eSUP/AIP%20SUP%20170-2026_2026_10_04/ES-SUP-en-GB.html#SUP","COORD":"","LOW_UOM":"","UP_UOM":"ft AMSL"}},{"type":"Feature","id":"SUP.76","geometry":{"type":"MultiPolygon","coordinates":[[[[15.01333333,57.8525],[15.08972222,57.83083333],[14.94277778,57.68388889],[14.94138889,57.69138889],[14.93638889,57.69666667],[14.93083333,57.70055556],[14.92416667,57.70361111],[14.91638889,57.70638889],[14.90833333,57.70805556],[14.9,57.70916667],[14.88833333,57.70944444],[14.8775,57.70861111],[14.86638889,57.70555556],[15.01333333,57.8525]]]]},"geometry_name":"the_geom","properties":{"NAME":"ROSJÖN","ID":"ESR393_1","DESIG":"ESR393","LOWER":"SFC","UPPER":"2500","FROM":"2026-10-06T14:30Z","TO":"2026-10-15T21:00Z","SCHEDULE":"06 - 07 OCT 1430 - 2100\n13 - 15 OCT 1430 - 2100","COM_SE":"Tillfälliga restriktionsområdet ESR393 Rosjön upprättas för militär verksamhet inklusive flygverksamhet.\nInom området gäller förbud mot all luftfart som inte ingår i verksamheten.","COM_EN":"Temporary restricted area ESR393 Rosjön established for military activities including aviation operation.\n \nFlight within the area prohibited for all non-participating aircraft.","URL":"https://aro.lfv.se/content/eaip/AIP%20AMDT%201-2026_2026_08_07/eSUP/AIP%20SUP%20180-2026_2026_10_06/ES-SUP-en-GB.html#SUP","COORD":"","LOW_UOM":"","UP_UOM":"ft AMSL"}},{"type":"Feature","id":"SUP.77","geometry":{"type":"MultiPolygon","coordinates":[[[[15.0475,55.94972222],[15.17861111,55.93861111],[15.18527778,55.61972222],[14.46472222,55.56861111],[14.37583333,55.59805556],[14.19611111,55.72361111],[14.15527778,55.72194444],[14.13861111,55.75388889],[14.165,55.76916667],[14.19555556,55.76222222],[14.37444444,55.93972222],[15.0475,55.94972222]]]]},"geometry_name":"the_geom","properties":{"NAME":"STENSHUVUD","ID":"ESR527_1","DESIG":"ESR527","LOWER":"SFC","UPPER":"FL195","FROM":"2026-10-08T07:00Z","TO":"2026-10-09T20:00Z","SCHEDULE":"08 – 09 OCT 0700 – 2000","COM_SE":"Tillfälligt restriktionsområde ESR527 Stenshuvud upprättas för militär verksamhet.\nInom området gäller förbud mot all luftfart som inte ingår i verksamheten.","COM_EN":"Temporary restricted area ESR527 Stenshuvud established for military operations.\nFlight within the area prohibited for all non-participating aircraft.","URL":"https://aro.lfv.se/content/eaip/AIP%20AMDT%201-2026_2026_08_07/eSUP/AIP%20SUP%20179-2026_2026_10_08/ES-SUP-en-GB.html#SUP","COORD":"","LOW_UOM":"","UP_UOM":""}},{"type":"Feature","id":"SUP.78","geometry":{"type":"MultiPolygon","coordinates":[[[[17.99527778,60.34222222],[17.9925,60.30333333],[18.10472222,60.30472222],[18.10138889,60.2875],[17.79472222,60.25416667],[17.93583333,60.33888889],[17.94694444,60.34111111],[17.99527778,60.34222222]]]]},"geometry_name":"the_geom","properties":{"NAME":"ÄLGSJÖN","ID":"ESR524_1","DESIG":"ESR524","LOWER":"SFC","UPPER":"3000","FROM":"2026-10-12T10:00Z","TO":"2026-10-22T08:00Z","SCHEDULE":"12 OCT 1000 – 22 OCT 0800","COM_SE":"Tillfälliga restriktionsområden ESR524 Älgsjön och ESR525 Alunda upprättas för militär flygverksamhet.\nInom området gäller förbud mot all luftfart som inte ingår i verksamheten.","COM_EN":"Temporary restricted areas ESR524 Älgsjön and ESR525 Alunda established for military aviation operations.\nFlight within the areas prohibited for all non-participating aircraft.","URL":"https://aro.lfv.se/content/eaip/AIP%20AMDT%201-2026_2026_08_07/eSUP/AIP%20SUP%20178-2026_2026_10_12/ES-SUP-en-GB.html#SUP","COORD":"","LOW_UOM":"","UP_UOM":"ft AMSL"}},{"type":"Feature","id":"SUP.79","geometry":{"type":"MultiPolygon","coordinates":[[[[18.21305556,60.29944444],[18.24638889,60.09527778],[18.07027778,60.07972222],[17.97166667,60.07444444],[17.94277778,60.09666667],[17.87361111,60.14638889],[17.82333333,60.19527778],[17.79472222,60.25416667],[18.21305556,60.29944444]]]]},"geometry_name":"the_geom","properties":{"NAME":"ALUNDA","ID":"ESR525_1","DESIG":"ESR525","LOWER":"SFC","UPPER":"1200","FROM":"2026-10-12T10:00Z","TO":"2026-10-22T08:00Z","SCHEDULE":"12 OCT 1000 – 22 OCT 0800","COM_SE":"Tillfälliga restriktionsområden ESR524 Älgsjön och ESR525 Alunda upprättas för militär flygverksamhet.\nInom området gäller förbud mot all luftfart som inte ingår i verksamheten.","COM_EN":"Temporary restricted areas ESR524 Älgsjön and ESR525 Alunda established for military aviation operations.\nFlight within the areas prohibited for all non-participating aircraft.","URL":"https://aro.lfv.se/content/eaip/AIP%20AMDT%201-2026_2026_08_07/eSUP/AIP%20SUP%20178-2026_2026_10_12/ES-SUP-en-GB.html#SUP","COORD":"","LOW_UOM":"","UP_UOM":"ft AMSL"}},{"type":"Feature","id":"SUP.80","geometry":{"type":"MultiPolygon","coordinates":[[[[21.42416667,65.86444444],[21.60444444,65.80972222],[21.51222222,65.76527778],[21.31222222,65.75694444],[21.21222222,65.66527778],[21.28805556,65.83972222],[21.34138889,65.8575],[21.42416667,65.86444444]]]]},"geometry_name":"the_geom","properties":{"NAME":"DEGERNÄS","ID":"ESR727_1","DESIG":"ESR727","LOWER":"SFC","UPPER":"FL235","FROM":"2026-10-11T09:00Z","TO":"2026-10-17T19:30Z","SCHEDULE":"11 OCT 0900 – 1930\n12 OCT 0900 – 2200\n13 – 17 OCT 0900 – 1930","COM_SE":"Tillfälligt restriktionsområde ESR727 Degernäs upprättas för militär verksamhet samt militär flygverksamhet.\nInom området gäller förbud mot all luftfart som inte ingår i verksamheten.","COM_EN":"Temporary restricted area ESR727 Degernäs established for military activities and military aviation operations.\nFlight within the area prohibited for all non-participating aircraft.","URL":"https://aro.lfv.se/content/eaip/AIP%20AMDT%201-2026_2026_08_07/eSUP/AIP%20SUP%20177-2026_2026_10_13/ES-SUP-en-GB.html#SUP","COORD":"","LOW_UOM":"","UP_UOM":""}},{"type":"Feature","id":"SUP.81","geometry":{"type":"MultiPolygon","coordinates":[[[[18.53166667,67.715],[19.86222222,66.59861111],[18.57916667,66.915],[17.87944444,66.51527778],[19.44583333,65.86527778],[16.48972222,66.62694444],[18.53166667,67.715]]]]},"geometry_name":"the_geom","properties":{"NAME":"TJÅMOTIS","ID":"ESR768_1","DESIG":"ESR768","LOWER":"FL70","UPPER":"FL660","FROM":"2026-10-05T07:00Z","TO":"2026-10-16T17:00Z","SCHEDULE":"05 – 16 OCT 0700 – 1700","COM_SE":"Tillfälligt restriktionsområde ESR768 Tjåmotis upprättas för militär flygverksamhet.\nInom området gäller förbud mot all luftfart som inte ingår i verksamheten.","COM_EN":"Temporary restricted area ESR768 Tjåmotis established for military aviation operations.\nFlight within the area prohibited for all non-participating aircraft.","URL":"https://aro.lfv.se/content/eaip/AIP%20AMDT%201-2026_2026_08_07/eSUP/AIP%20SUP%20176-2026_2026_10_05/ES-SUP-en-GB.html#SUP","COORD":"","LOW_UOM":"","UP_UOM":""}},{"type":"Feature","id":"SUP.82","geometry":{"type":"MultiPolygon","coordinates":[[[[23.93972222,66.08],[24.12583333,65.84944444],[24.15361111,65.82222222],[24.02194444,65.78527778],[23.79888889,65.695],[23.69722222,65.69333333],[23.65861111,65.81444444],[23.72833333,65.96527778],[23.93972222,66.08]]]]},"geometry_name":"the_geom","properties":{"NAME":"HAPARANDA","ID":"ESR550_2","DESIG":"ESR550","LOWER":"SFC","UPPER":"3500","FROM":"2026-09-24T06:00Z","TO":"2026-09-27T10:00Z","SCHEDULE":"24 SEP 0600 – 27 SEP 1000","COM_SE":"Tillfälliga restriktionsområden ESR550 Haparanda, ESR551 Övertorneå, ESR552 Överkalix och ESR553 Kalix upprättas för Militär flygverksamhet.","COM_EN":"Temporary restricted areas ESR550 Haparanda, ESR551 Övertorneå, ESR552 Överkalix and ESR553 Kalix are established for military aviation operations.","URL":"https://aro.lfv.se/content/eaip/AIP%20AMDT%201-2026_2026_08_07/eSUP/AIP%20SUP%20166-2026_2026_09_24/ES-SUP-en-GB.html#SUP","COORD":"","LOW_UOM":"","UP_UOM":"ft AMSL"}},{"type":"Feature","id":"SUP.83","geometry":{"type":"MultiPolygon","coordinates":[[[[23.39083333,67.01194444],[23.72472222,67.01166667],[23.8475,66.94111111],[23.85888889,66.91777778],[23.94222222,66.8575],[23.90166667,66.79722222],[23.85305556,66.74833333],[23.85944444,66.655],[23.62305556,66.45194444],[23.64277778,66.41194444],[23.67305556,66.38722222],[23.63972222,66.31388889],[23.67833333,66.23944444],[23.50027778,66.17583333],[23.06555556,66.32388889],[22.95055556,66.4525],[22.98833333,66.61694444],[23.13583333,66.80861111],[23.39083333,67.01194444]]]]},"geometry_name":"the_geom","properties":{"NAME":"ÖVERTORNEÅ","ID":"ESR551_2","DESIG":"ESR551","LOWER":"SFC","UPPER":"3500","FROM":"2026-09-24T06:00Z","TO":"2026-09-27T10:00Z","SCHEDULE":"24 SEP 0600 – 27 SEP 1000","COM_SE":"Tillfälliga restriktionsområden ESR550 Haparanda, ESR551 Övertorneå, ESR552 Överkalix och ESR553 Kalix upprättas för Militär flygverksamhet.","COM_EN":"Temporary restricted areas ESR550 Haparanda, ESR551 Övertorneå, ESR552 Överkalix and ESR553 Kalix are established for military aviation operations.","URL":"https://aro.lfv.se/content/eaip/AIP%20AMDT%201-2026_2026_08_07/eSUP/AIP%20SUP%20166-2026_2026_09_24/ES-SUP-en-GB.html#SUP","COORD":"","LOW_UOM":"","UP_UOM":"ft AMSL"}}],"totalFeatures":83,"numberMatched":83,"numberReturned":83,"timeStamp":"2026-09-25T13:48:45.861Z","crs":{"type":"name","properties":{"name":"urn:ogc:def:crs:EPSG::4326"}}}